{"type":"FeatureCollection","features":[{"type":"Feature","properties":{"highway":"motorway","lanes":"2","lit":"yes","maxspeed":"80","oneway":"yes","ref":"A1L","source:maxspeed":"sign","surface":"asphalt","toll":"yes","turn:lanes":"merge_to_right|none","carriage_ref":"b","opposite_carriage_ref":"a"},"geometry":{"type":"LineString","coordinates":[[8.5741804,47.4142469],[8.5741868,47.4139982],[8.5741821,47.4137472],[8.5741641,47.4135787],[8.5741326,47.4134186],[8.5740637,47.4132712]]}},{"type":"Feature","properties":{"highway":"motorway","lanes":"2","lit":"yes","maxspeed":"80","oneway":"yes","ref":"A1L","surface":"asphalt","toll":"yes","carriage_ref":"a","opposite_carriage_ref":"b"},"geometry":{"type":"LineString","coordinates":[[8.5650298,47.4065479],[8.5656971,47.4069527],[8.5659294,47.4071002],[8.5661528,47.4072557],[8.5664926,47.4075058],[8.5682185,47.4089626],[8.568559,47.4092532],[8.5687203,47.4093764],[8.5689589,47.4095494]]}},{"type":"Feature","properties":{"change:lanes":"not_left|not_right|yes","highway":"motorway","lanes":"1","lit":"yes","maxspeed":"100","oneway":"yes","placement":"right_of:1","ref":"A1L","shoulder:left":"yes","surface":"asphalt","toll":"no","turn:lanes":"none|none|merge_to_left","first":"true","carriage_ref":"b","opposite_carriage_ref":"a"},"geometry":{"type":"LineString","coordinates":[[8.5740358,47.4188102],[8.5740853,47.416932]]}},{"type":"Feature","properties":{"highway":"motorway","lanes":"3","lit":"yes","maxspeed":"60","oneway":"yes","ref":"A1L","surface":"asphalt","toll":"yes","carriage_ref":"b","opposite_carriage_ref":"a"},"geometry":{"type":"LineString","coordinates":[[8.5685324,47.409379],[8.5678805,47.4088636],[8.5673971,47.4084418],[8.5669072,47.4079936],[8.5666323,47.4077668],[8.5663338,47.4075314],[8.5660457,47.4073247],[8.5657485,47.4071262],[8.5654675,47.4069477],[8.5651782,47.4067828],[8.5649759,47.4066515]]}},{"type":"Feature","properties":{"highway":"trunk","lanes":"2","lit":"yes","maxspeed":"80","oneway":"yes","ref":"A1L","toll":"yes","carriage_ref":"a","opposite_carriage_ref":"b"},"geometry":{"type":"LineString","coordinates":[[8.5478994,47.3996228],[8.5481588,47.3998024]]}},{"type":"Feature","properties":{"change:lanes":"not_left|not_right|yes","highway":"motorway","lanes":"1","lit":"yes","maxspeed":"100","oneway":"yes","placement":"right_of:1","ref":"A1L","shoulder:left":"yes","surface":"asphalt","toll":"no","turn:lanes":"none|none|merge_to_left","carriage_ref":"b","opposite_carriage_ref":"a"},"geometry":{"type":"LineString","coordinates":[[8.5740951,47.4164486],[8.5741237,47.4154746]]}},{"type":"Feature","properties":{"bridge":"yes","highway":"motorway","lanes":"1","layer":"2","lit":"yes","maxspeed":"80","oneway":"yes","ref":"A1L","surface":"asphalt","toll":"yes","carriage_ref":"b","opposite_carriage_ref":"a"},"geometry":{"type":"LineString","coordinates":[[8.5727703,47.4119485],[8.5725283,47.4118168],[8.5722846,47.4116848],[8.5719239,47.4114981],[8.571598,47.4113161],[8.5712577,47.4111342],[8.5708846,47.4109357],[8.5705323,47.4107373]]}},{"type":"Feature","properties":{"highway":"motorway","lanes":"2","lit":"yes","maxspeed":"80","oneway":"yes","ref":"A1L","toll":"yes","carriage_ref":"a","opposite_carriage_ref":"b"},"geometry":{"type":"LineString","coordinates":[[8.5481588,47.3998024],[8.5485396,47.4000278],[8.548918,47.4002525],[8.5496369,47.400653],[8.5501315,47.4009298]]}},{"type":"Feature","properties":{"highway":"motorway","lanes":"3","lit":"yes","maxspeed":"80","oneway":"yes","ref":"A1L","toll":"yes","carriage_ref":"a","opposite_carriage_ref":"b"},"geometry":{"type":"LineString","coordinates":[[8.5607287,47.4047874],[8.5611838,47.4049375],[8.5615309,47.405042],[8.561803,47.4051053],[8.5622216,47.4052002],[8.5625861,47.4052967],[8.5629364,47.4054083],[8.5633019,47.405556],[8.5635163,47.4056541],[8.5637204,47.4057624],[8.5639139,47.4058698],[8.5641021,47.4059811]]}},{"type":"Feature","properties":{"bridge":"yes","change:lanes":"not_left|not_right|yes","highway":"motorway","lanes":"1","layer":"1","lit":"yes","maxspeed":"100","oneway":"yes","placement":"right_of:1","ref":"A1L","shoulder:left":"yes","surface":"asphalt","toll":"no","turn:lanes":"none|none|merge_to_left","carriage_ref":"b","opposite_carriage_ref":"a"},"geometry":{"type":"LineString","coordinates":[[8.5740853,47.416932],[8.5740951,47.4164486]]}},{"type":"Feature","properties":{"highway":"motorway","lanes":"1","lit":"yes","maxspeed":"80","oneway":"yes","ref":"A1L","surface":"asphalt","toll":"yes","carriage_ref":"a","opposite_carriage_ref":"b"},"geometry":{"type":"LineString","coordinates":[[8.5695491,47.4099464],[8.5702535,47.4103123],[8.5705246,47.4104555]]}},{"type":"Feature","properties":{"highway":"motorway","lanes":"2","lit":"yes","maxspeed":"60","note":"Baustellenbedingt nur zwei Fahrstreifen (yes|yes|no)","oneway":"yes","ref":"A1L","toll":"yes","carriage_ref":"b","opposite_carriage_ref":"a"},"geometry":{"type":"LineString","coordinates":[[8.5522751,47.402054],[8.5518474,47.4018664],[8.5513307,47.4016215]]}},{"type":"Feature","properties":{"highway":"motorway","lanes":"2","lit":"yes","maxspeed":"80","oneway":"yes","ref":"A1L","toll":"yes","carriage_ref":"a","opposite_carriage_ref":"b"},"geometry":{"type":"LineString","coordinates":[[8.5641021,47.4059811],[8.5644759,47.4062055],[8.5650298,47.4065479]]}},{"type":"Feature","properties":{"highway":"trunk","lanes":"1","layer":"-3","lit":"yes","maxspeed":"80","oneway":"yes","ref":"A1L","surface":"asphalt","toll":"yes","tunnel":"yes","tunnel:name":"Milchbucktunnel","carriage_ref":"a","opposite_carriage_ref":"b"},"geometry":{"type":"LineString","coordinates":[[8.5382419,47.3861023],[8.5393603,47.3868559],[8.5407532,47.387841],[8.5413626,47.38832],[8.5419446,47.3888209],[8.5423938,47.389253],[8.5428627,47.3897325],[8.5432454,47.3901631],[8.5434537,47.3904159],[8.5436488,47.3906646],[8.543842,47.3909296],[8.5440767,47.3912925],[8.544257,47.3916062],[8.5444266,47.3919616],[8.5446162,47.3924384],[8.5446848,47.3926666],[8.5447469,47.3928926],[8.5448729,47.3934977],[8.5449685,47.3941129],[8.5450763,47.3948879],[8.5451998,47.3956651],[8.5453542,47.3962419],[8.5454593,47.3965383],[8.5455794,47.3968257],[8.5458018,47.397267],[8.5461136,47.3977534]]}},{"type":"Feature","properties":{"highway":"motorway","lit":"yes","maxspeed":"80","oneway":"yes","ref":"A1L","toll":"yes","carriage_ref":"a","opposite_carriage_ref":"b"},"geometry":{"type":"LineString","coordinates":[[8.5514434,47.4015364],[8.5518793,47.4017559],[8.552354,47.4019756]]}},{"type":"Feature","properties":{"highway":"motorway","lanes":"2","layer":"-1","lit":"yes","maxspeed":"80","oneway":"yes","ref":"A1L","toll":"yes","tunnel":"yes","tunnel:name":"Schöneichtunnel","wikidata":"Q1667296","wikipedia":"de:Schöneichtunnel","carriage_ref":"a","opposite_carriage_ref":"b"},"geometry":{"type":"LineString","coordinates":[[8.552354,47.4019756],[8.5543423,47.4028223],[8.5547824,47.4029366],[8.5552184,47.4030947],[8.5558292,47.4033223],[8.5564295,47.4035205],[8.5591742,47.4042505],[8.5593878,47.404311],[8.5596006,47.4043773],[8.5600058,47.4045132],[8.5604075,47.4046629],[8.5607287,47.4047874]]}},{"type":"Feature","properties":{"bridge":"yes","highway":"motorway","lanes":"2","layer":"1","lit":"yes","maxspeed":"80","oneway":"yes","ref":"A1L","source:maxspeed":"sign","surface":"asphalt","toll":"yes","turn:lanes":"merge_to_right|none","carriage_ref":"b","opposite_carriage_ref":"a"},"geometry":{"type":"LineString","coordinates":[[8.5740637,47.4132712],[8.5740387,47.4131882],[8.5740034,47.4130995],[8.5739477,47.4129945]]}},{"type":"Feature","properties":{"bridge":"yes","highway":"motorway","lanes":"2","layer":"1","lit":"yes","maxspeed":"100","oneway":"yes","ref":"A1L","surface":"asphalt","toll":"yes","carriage_ref":"b","opposite_carriage_ref":"a"},"geometry":{"type":"LineString","coordinates":[[8.5741794,47.4143198],[8.5741804,47.4142469]]}},{"type":"Feature","properties":{"highway":"motorway","lanes":"1","lit":"yes","maxspeed":"60","note":"Baustellenbedingt nur noch ein Fahrstreifen","oneway":"yes","ref":"A1L","toll":"yes","carriage_ref":"b","opposite_carriage_ref":"a"},"geometry":{"type":"LineString","coordinates":[[8.561868,47.4052273],[8.5614946,47.4051477],[8.5611304,47.4050408],[8.5606645,47.4048765]]}},{"type":"Feature","properties":{"highway":"motorway","lanes":"1","lit":"yes","maxspeed":"60","oneway":"yes","ref":"A1L","surface":"asphalt","toll":"yes","carriage_ref":"b","opposite_carriage_ref":"a"},"geometry":{"type":"LineString","coordinates":[[8.5705323,47.4107373],[8.57020121779,47.41048621516]]}},{"type":"Feature","properties":{"highway":"motorway","lanes":"1","lit":"yes","maxspeed":"100","oneway":"yes","placement":"transition","ref":"A1L","surface":"asphalt","toll":"yes","last":"true","carriage_ref":"a","opposite_carriage_ref":"b"},"geometry":{"type":"LineString","coordinates":[[8.5744807,47.4152906],[8.5744563,47.4158122],[8.5744402,47.4160681],[8.5744879,47.4162513]]}},{"type":"Feature","properties":{"bicycle":"no","foot":"no","highway":"trunk","lanes":"1","layer":"-2","lit":"yes","maxspeed":"80","note":"position estimated","oneway":"yes","ref":"A1L","surface":"asphalt","toll":"yes","tunnel":"yes","tunnel:name":"Milchbucktunnel","carriage_ref":"a","opposite_carriage_ref":"b","first":"true"},"geometry":{"type":"LineString","coordinates":[[8.5371441,47.3853127],[8.5372983,47.3854511],[8.5374707,47.385556],[8.5378504,47.3858361],[8.5382419,47.3861023]]}},{"type":"Feature","properties":{"highway":"motorway","lanes":"1","layer":"-1","lit":"yes","maxspeed":"60","note":"Baustellenbedingt nur noch ein Fahrstreifen","oneway":"yes","ref":"A1L","toll":"yes","tunnel":"yes","tunnel:name":"Schöneichtunnel","wikidata":"Q1667296","wikipedia":"de:Schöneichtunnel","carriage_ref":"b","opposite_carriage_ref":"a"},"geometry":{"type":"LineString","coordinates":[[8.5606645,47.4048765],[8.5603507,47.4047496],[8.55975,47.4045148],[8.5594416,47.4044137],[8.5591223,47.4043256],[8.5584378,47.404152],[8.5563932,47.4035994],[8.5559276,47.4034715]]}},{"type":"Feature","properties":{"highway":"trunk","lanes":"2","layer":"-2","lit":"yes","maxspeed":"80","oneway":"yes","ref":"A1L","toll":"yes","tunnel":"yes","tunnel:name":"Milchbucktunnel","carriage_ref":"a","opposite_carriage_ref":"b"},"geometry":{"type":"LineString","coordinates":[[8.5461136,47.3977534],[8.5461989,47.3979326],[8.5463098,47.398103],[8.5465916,47.3984153],[8.5470352,47.398856],[8.5474322,47.399253],[8.5476831,47.3994505],[8.5478994,47.3996228]]}},{"type":"Feature","properties":{"bridge":"yes","highway":"motorway","lanes":"2","layer":"3","lit":"yes","maxspeed":"80","oneway":"yes","ref":"A1L","surface":"asphalt","toll":"yes","carriage_ref":"a","opposite_carriage_ref":"b"},"geometry":{"type":"LineString","coordinates":[[8.5707477,47.4105619],[8.5709106,47.4106382],[8.5710857,47.4107151],[8.5713006,47.4108048],[8.5715185,47.4108917],[8.5716963,47.4109585],[8.5721396,47.4111167],[8.5724739,47.4112456]]}},{"type":"Feature","properties":{"bridge":"yes","highway":"motorway","lanes":"1","layer":"3","lit":"yes","maxspeed":"100","oneway":"yes","ref":"A1L","surface":"asphalt","toll":"yes","carriage_ref":"a","opposite_carriage_ref":"b"},"geometry":{"type":"LineString","coordinates":[[8.5724739,47.4112456],[8.572853,47.4114013],[8.5730046,47.4114626],[8.5731558,47.4115253],[8.5732795,47.4115894],[8.5734035,47.4116509],[8.5735784,47.4117566],[8.573761,47.4118841],[8.57386,47.4119624],[8.5739541,47.4120294],[8.5740856,47.4121554],[8.5741562,47.4122302],[8.5742151,47.412306],[8.5743017,47.4124261],[8.5743752,47.4125418],[8.5744514,47.4126813],[8.5745153,47.4128077],[8.5745628,47.4129585],[8.5745984,47.4130987],[8.5746203,47.4132672],[8.5746253,47.4133939],[8.5746209,47.4135518],[8.5746051,47.4137338],[8.5745821,47.4139881],[8.5745405,47.4143521]]}},{"type":"Feature","properties":{"highway":"motorway","lanes":"1","lit":"yes","maxspeed":"100","oneway":"yes","ref":"A1L","surface":"asphalt","toll":"yes","carriage_ref":"a","opposite_carriage_ref":"b"},"geometry":{"type":"LineString","coordinates":[[8.5745405,47.4143521],[8.5745291,47.4146585],[8.5745087,47.4149493],[8.5744807,47.4152906]]}},{"type":"Feature","properties":{"destination":"Zürich-City","highway":"motorway","lanes":"2","lit":"yes","maxspeed":"100","oneway":"yes","placement":"transition","ref":"A1L","surface":"asphalt","toll":"yes","carriage_ref":"b","opposite_carriage_ref":"a"},"geometry":{"type":"LineString","coordinates":[[8.5741237,47.4154746],[8.5741264,47.4150916],[8.5741794,47.4143198]]}},{"type":"Feature","properties":{"highway":"motorway","lanes":"2","layer":"-1","lit":"yes","maxspeed":"60","note":"Baustellenbedingt nur zwei Fahrstreifen (yes|yes|no)","oneway":"yes","ref":"A1L","toll":"yes","tunnel":"yes","tunnel:name":"Schöneichtunnel","wikidata":"Q1667296","wikipedia":"de:Schöneichtunnel","carriage_ref":"b","opposite_carriage_ref":"a"},"geometry":{"type":"LineString","coordinates":[[8.5559276,47.4034715],[8.554855,47.4030963],[8.5542297,47.4029138],[8.5531108,47.4024321],[8.5522751,47.402054]]}},{"type":"Feature","properties":{"highway":"motorway","lanes":"1","lit":"yes","maxspeed":"80","oneway":"yes","ref":"A1L","source:maxspeed":"sign","surface":"asphalt","toll":"yes","carriage_ref":"b","opposite_carriage_ref":"a"},"geometry":{"type":"LineString","coordinates":[[8.5739477,47.4129945],[8.5738484,47.4128324],[8.5737431,47.4127078],[8.5736231,47.4125748],[8.573506,47.4124606],[8.5733768,47.4123491],[8.5731385,47.4121704],[8.5729582,47.4120557],[8.5727703,47.4119485]]}},{"type":"Feature","properties":{"bicycle":"no","foot":"no","highway":"trunk","lanes":"1","layer":"-3","lit":"yes","maxspeed":"60","oneway":"yes","ref":"A1L","surface":"asphalt","toll":"yes","tunnel":"yes","tunnel:name":"Milchbucktunnel","wikidata":"Q1934398","wikipedia":"de:Milchbucktunnel","carriage_ref":"b","opposite_carriage_ref":"a"},"geometry":{"type":"LineString","coordinates":[[8.5477894,47.399707],[8.5476081,47.3995877],[8.547389,47.3994269],[8.5469765,47.3991215],[8.5466356,47.3988207],[8.5463941,47.3986093],[8.546168,47.3983879],[8.546064,47.3982204],[8.546004,47.3980417],[8.5458789,47.3975305],[8.545718,47.3972696],[8.5454199,47.3966736],[8.5452544,47.3962486],[8.5450927,47.3956433],[8.5448075,47.3936593],[8.5447292,47.3932036],[8.544662,47.3928937],[8.5446077,47.3926682],[8.5445367,47.392447],[8.5444487,47.3922116],[8.544356,47.3919769],[8.5441909,47.3916313],[8.544012,47.3913167],[8.5437803,47.3909519],[8.5435831,47.3906767],[8.5434007,47.3904387],[8.5432132,47.3902024],[8.5427938,47.3897419],[8.5423307,47.389274],[8.5418914,47.3888508],[8.5413072,47.3883592],[8.5407011,47.387873],[8.5392936,47.3868853],[8.538398,47.3862831],[8.5379811,47.3860293],[8.5378506,47.3859889],[8.5377033,47.3859695],[8.5375806,47.3859537],[8.5374616,47.3859307],[8.5373831,47.3859125],[8.5372647,47.3858642]]}},{"type":"Feature","properties":{"highway":"motorway","lanes":"1","lit":"yes","maxspeed":"80","oneway":"yes","ref":"A1L","toll":"yes","carriage_ref":"a","opposite_carriage_ref":"b"},"geometry":{"type":"LineString","coordinates":[[8.5501315,47.4009298],[8.5510832,47.4013969],[8.5514434,47.4015364]]}},{"type":"Feature","properties":{"highway":"motorway","lanes":"1","lit":"yes","maxspeed":"60","oneway":"yes","ref":"A1L","toll":"yes","carriage_ref":"b","opposite_carriage_ref":"a"},"geometry":{"type":"LineString","coordinates":[[8.5513307,47.4016215],[8.5510923,47.4014825],[8.5506106,47.4012658],[8.5500242,47.400957]]}},{"type":"Feature","properties":{"highway":"motorway","lanes":"2","lit":"yes","maxspeed":"60","oneway":"yes","ref":"A1L","toll":"yes","carriage_ref":"b","opposite_carriage_ref":"a"},"geometry":{"type":"LineString","coordinates":[[8.5649759,47.4066515],[8.5645244,47.4063532],[8.5641205,47.4061148],[8.5637145,47.4058902],[8.5634004,47.4057251],[8.5630553,47.4055711],[8.562595,47.4054103],[8.5621845,47.4052947],[8.561868,47.4052273]]}},{"type":"Feature","properties":{"destination:lanes":"Parkplatz Irchel|Zürich City","highway":"motorway","lanes":"2","lit":"yes","maxspeed":"60","oneway":"yes","ref":"A1L","toll":"yes","carriage_ref":"b","opposite_carriage_ref":"a"},"geometry":{"type":"LineString","coordinates":[[8.5500242,47.400957],[8.5495077,47.4006844],[8.5485603,47.4001768]]}},{"type":"Feature","properties":{"highway":"motorway","lanes":"2","lit":"yes","maxspeed":"60","oneway":"yes","ref":"A1L","surface":"asphalt","toll":"yes","carriage_ref":"b","opposite_carriage_ref":"a"},"geometry":{"type":"LineString","coordinates":[[8.57020121779,47.41048621516],[8.5698483,47.4102899],[8.5696819,47.4101838],[8.5694516,47.4100382],[8.5688715,47.4096413],[8.5685324,47.409379]]}},{"type":"Feature","properties":{"highway":"motorway","lanes":"2","lit":"yes","maxspeed":"80","oneway":"yes","ref":"A1L","surface":"asphalt","toll":"yes","carriage_ref":"a","opposite_carriage_ref":"b"},"geometry":{"type":"LineString","coordinates":[[8.5705246,47.4104555],[8.5707477,47.4105619]]}},{"type":"Feature","properties":{"highway":"motorway","lanes":"3","lit":"yes","maxspeed":"80","oneway":"yes","ref":"A1L","surface":"asphalt","toll":"yes","carriage_ref":"a","opposite_carriage_ref":"b"},"geometry":{"type":"LineString","coordinates":[[8.5689589,47.4095494],[8.5691343,47.4096789],[8.569323,47.4098076],[8.5695491,47.4099464]]}},{"type":"Feature","properties":{"highway":"trunk","lanes":"1","lit":"yes","maxspeed":"60","oneway":"yes","ref":"A1L","toll":"yes","carriage_ref":"b","opposite_carriage_ref":"a"},"geometry":{"type":"LineString","coordinates":[[8.5485603,47.4001768],[8.5482716,47.400004],[8.5477894,47.399707]]}},{"type":"Feature","properties":{"highway":"trunk","lanes":"3","layer":"-2","lit":"yes","maxspeed":"60","note":"position estimated","oneway":"yes","ref":"A1L","surface":"asphalt","toll":"yes","tunnel":"yes","tunnel:name":"Milchbucktunnel","turn:lanes":"left|left;right|right","last":"true","carriage_ref":"b","opposite_carriage_ref":"a"},"geometry":{"type":"LineString","coordinates":[[8.5370438,47.3857168],[8.5367878,47.385552]]}},{"type":"Feature","properties":{"highway":"trunk","lanes":"2","layer":"-2","lit":"yes","maxspeed":"60","note":"position estimated","oneway":"yes","ref":"A1L","toll":"yes","tunnel":"yes","tunnel:name":"Milchbucktunnel","carriage_ref":"b","opposite_carriage_ref":"a"},"geometry":{"type":"LineString","coordinates":[[8.5372647,47.3858642],[8.5370438,47.3857168]]}}],"ref":"A1L","generator":"Quandopasso Path Importer","created":"2021-01-04T14:34:34.656Z","format":"1.0.0"}