{"type":"FeatureCollection","features":[{"type":"Feature","properties":{"highway":"motorway","lanes":"2","layer":"-1","maxspeed":"120","name":"Aspiholztunnel","oneway":"yes","ref":"A7","toll":"yes","tunnel":"yes","tunnel:name":"Aspiholz","carriage_ref":"A"},"geometry":{"type":"LineString","coordinates":[[9.0265579,47.6051546],[9.0246485,47.6046846]]}},{"type":"Feature","properties":{"highway":"motorway","lanes":"2","maxspeed":"120","oneway":"yes","ref":"A7","surface":"asphalt","toll":"yes","carriage_ref":"B"},"geometry":{"type":"LineString","coordinates":[[8.9931348,47.5889411],[8.9942202,47.5891725],[8.9949901,47.5893551],[8.9962218,47.5896795],[8.9973059,47.5899779]]}},{"type":"Feature","properties":{"highway":"motorway","lanes":"2","maxspeed":"120","oneway":"yes","ref":"A7","source":"Bing","toll":"yes","carriage_ref":"A"},"geometry":{"type":"LineString","coordinates":[[9.1433922,47.6310831],[9.1432869,47.6303779],[9.1430563,47.6296381],[9.1426802,47.6289117],[9.1422734,47.6283967],[9.1416967,47.6278452],[9.1413222,47.6275508],[9.1409387,47.6272989],[9.1403027,47.6269616],[9.1398785,47.6267716],[9.1394798,47.626631],[9.1387147,47.6263959],[9.1378524,47.6262143],[9.1369155,47.6260793],[9.1359368,47.6259996],[9.1341803,47.6259378],[9.1307974,47.6259393],[9.1291962,47.6258548],[9.1275782,47.6256724],[9.126347,47.6254691],[9.1248449,47.6251371],[9.1237796,47.6248329],[9.1220639,47.6242782]]}},{"type":"Feature","properties":{"highway":"motorway","lanes":"2","maxspeed":"120","oneway":"yes","ref":"A7","surface":"asphalt","toll":"yes","carriage_ref":"B"},"geometry":{"type":"LineString","coordinates":[[9.0030599,47.5922663],[9.0044293,47.5929779],[9.00602,47.5939255],[9.0078667,47.5951815]]}},{"type":"Feature","properties":{"bridge":"yes","highway":"motorway","lanes":"2","layer":"1","maxspeed":"120","oneway":"yes","ref":"A7","toll":"yes","carriage_ref":"A"},"geometry":{"type":"LineString","coordinates":[[8.8956376,47.5661381],[8.8951637,47.5660803]]}},{"type":"Feature","properties":{"bridge":"yes","highway":"motorway","lanes":"2","layer":"1","maxspeed":"120","oneway":"yes","ref":"A7","toll":"yes","carriage_ref":"B"},"geometry":{"type":"LineString","coordinates":[[8.8108104,47.5394144],[8.8110686,47.5395733]]}},{"type":"Feature","properties":{"highway":"motorway","lanes":"3","maxspeed":"50","oneway":"yes","ref":"A7","surface":"asphalt","toll":"no","turn:lanes":"left|through|through","last":"true","carriage_ref":"B"},"geometry":{"type":"LineString","coordinates":[[9.1613998,47.6614357],[9.1614481,47.6617075],[9.1614595,47.6617605]]}},{"type":"Feature","properties":{"bridge":"yes","highway":"motorway","lanes":"2","layer":"1","maxspeed":"120","oneway":"yes","ref":"A7","surface":"asphalt","toll":"yes","carriage_ref":"A"},"geometry":{"type":"LineString","coordinates":[[8.9930249,47.5890338],[8.9917346,47.5888048],[8.990548,47.5886223],[8.9892246,47.5884647]]}},{"type":"Feature","properties":{"bridge":"yes","highway":"motorway","lanes":"2","layer":"1","maxspeed":"120","oneway":"yes","ref":"A7","surface":"asphalt","toll":"yes","carriage_ref":"B"},"geometry":{"type":"LineString","coordinates":[[8.9892842,47.5883564],[8.9906283,47.5885225],[8.9918112,47.5887001],[8.9931348,47.5889411]]}},{"type":"Feature","properties":{"highway":"motorway","lanes":"2","maxspeed":"120","oneway":"yes","ref":"A7","surface":"asphalt","toll":"yes","carriage_ref":"A"},"geometry":{"type":"LineString","coordinates":[[8.9892246,47.5884647],[8.9874745,47.5882963],[8.9859655,47.5881932],[8.9845585,47.5881192],[8.9828165,47.5880537],[8.9809614,47.5880179],[8.9784085,47.5879827],[8.9759839,47.5879681],[8.9732171,47.5879452],[8.970841,47.5879242],[8.9680376,47.5879023],[8.9650659,47.5878824],[8.9606606,47.5878425],[8.9586075,47.5878223],[8.9565122,47.5877918],[8.9539426,47.587726],[8.9526966,47.5876765],[8.9509058,47.5875803],[8.947792,47.5873255],[8.9465552,47.5871884],[8.9450144,47.5869818],[8.943356,47.5867142],[8.9415578,47.5863573],[8.9402691,47.5860567],[8.9383974,47.5855616],[8.9370463,47.5851481],[8.9356961,47.5847002],[8.9344704,47.5842415],[8.9332789,47.5837622],[8.9318236,47.5831217],[8.9305152,47.5824954]]}},{"type":"Feature","properties":{"avz":"246","cs_dir:forward":"1","highway":"motorway","lanes":"2","maxspeed":"80","oneway":"yes","ref":"A7","source":"Bing","ssvz":"1105N","start_date":"2002","surface":"asphalt","toll":"yes","carriage_ref":"B"},"geometry":{"type":"LineString","coordinates":[[9.1542885,47.6512613],[9.1545454,47.6515324],[9.1548431,47.6518184],[9.1551684,47.6520967],[9.1554803,47.6523288],[9.1560128,47.652678],[9.1567253,47.6531451],[9.1571337,47.6534501],[9.1580049,47.6541774]]}},{"type":"Feature","properties":{"highway":"motorway","lanes":"2","lit":"yes","maxspeed":"20","oneway":"yes","ref":"A7","shoulder":"none","source:maxspeed":"sign","surface":"asphalt","toll":"no","carriage_ref":"B"},"geometry":{"type":"LineString","coordinates":[[9.1597306,47.6562192],[9.1600537,47.6567637],[9.1602347,47.6572163],[9.1603736,47.6575691],[9.160527,47.6579266]]}},{"type":"Feature","properties":{"bridge":"yes","highway":"motorway","lanes":"2","layer":"1","maxspeed":"120","oneway":"yes","ref":"A7","toll":"yes","carriage_ref":"B"},"geometry":{"type":"LineString","coordinates":[[8.8700208,47.5604345],[8.8706206,47.5607196]]}},{"type":"Feature","properties":{"highway":"motorway","lanes":"2","layer":"-1","maxspeed":"120","name":"Aspiholztunnel","oneway":"yes","ref":"A7","toll":"yes","tunnel":"yes","tunnel:name":"Aspiholz","carriage_ref":"B"},"geometry":{"type":"LineString","coordinates":[[9.0246989,47.6046019],[9.0266207,47.6050782]]}},{"type":"Feature","properties":{"highway":"motorway","lanes":"2","maxspeed":"120","oneway":"yes","ref":"A7","toll":"yes","carriage_ref":"B"},"geometry":{"type":"LineString","coordinates":[[8.8386009,47.5540206],[8.8390441,47.5540746],[8.8396325,47.5541321],[8.8413801,47.5542717],[8.8432593,47.5543405]]}},{"type":"Feature","properties":{"highway":"motorway","lanes":"2","lit":"yes","maxspeed":"60","oneway":"yes","ref":"A7","shoulder":"none","source:maxspeed":"sign","surface":"asphalt","toll":"no","first":"true","carriage_ref":"A"},"geometry":{"type":"LineString","coordinates":[[9.1612829,47.6618592],[9.1611722,47.6608789],[9.1611461,47.6607284],[9.1609911,47.6598364],[9.1609117,47.6594013]]}},{"type":"Feature","properties":{"bridge":"yes","highway":"motorway","lanes":"2","layer":"1","maxspeed":"120","oneway":"yes","ref":"A7","toll":"yes","carriage_ref":"B"},"geometry":{"type":"LineString","coordinates":[[8.8951872,47.5659714],[8.895691,47.5660334]]}},{"type":"Feature","properties":{"avz":"236","cs_dir:forward":"3","highway":"motorway","lanes":"3","maxspeed":"20","oneway":"yes","ref":"A7","ssvz":"1103N","surface":"asphalt","toll":"no","carriage_ref":"B"},"geometry":{"type":"LineString","coordinates":[[9.1594728,47.655783],[9.1595171,47.6558814],[9.1595706,47.6559675]]}},{"type":"Feature","properties":{"highway":"motorway","lanes":"2","layer":"-1","maxspeed":"120","name":"Fuchswiestunnel","oneway":"yes","ref":"A7","toll":"yes","tunnel":"yes","tunnel:alt_name":"Fuchswis","tunnel:name":"Fuchswies","carriage_ref":"B"},"geometry":{"type":"LineString","coordinates":[[9.1198696,47.6232718],[9.1221972,47.6242123]]}},{"type":"Feature","properties":{"highway":"motorway","lanes":"2","maxspeed":"120","oneway":"yes","ref":"A7","surface":"asphalt","toll":"yes","carriage_ref":"A"},"geometry":{"type":"LineString","coordinates":[[8.997055,47.5900267],[8.9961377,47.5897712],[8.9949161,47.5894623],[8.9941422,47.589281],[8.9930249,47.5890338]]}},{"type":"Feature","properties":{"highway":"motorway","lanes":"2","maxspeed":"120","oneway":"yes","ref":"A7","surface":"asphalt","toll":"yes","carriage_ref":"A"},"geometry":{"type":"LineString","coordinates":[[9.0028362,47.5922658],[9.0021196,47.5919261],[9.0015524,47.5916699],[9.0006555,47.5912942],[8.9995524,47.5908614],[8.9985277,47.5904955]]}},{"type":"Feature","properties":{"highway":"motorway","lanes":"2","maxspeed":"120","oneway":"yes","ref":"A7","toll":"yes","carriage_ref":"A"},"geometry":{"type":"LineString","coordinates":[[8.8385778,47.5541238],[8.8373107,47.5539353],[8.8359904,47.5536943],[8.834463,47.5533031],[8.8336566,47.553074],[8.8327379,47.552777],[8.8316799,47.5523843],[8.8308781,47.5520395]]}},{"type":"Feature","properties":{"highway":"motorway","lanes":"3","lit":"yes","maxspeed":"60","oneway":"yes","placement":"right_of:1","ref":"A7","shoulder":"none","source:maxspeed":"sign","surface":"asphalt","toll":"no","turn:lanes":"none|none|merge_to_left","carriage_ref":"B"},"geometry":{"type":"LineString","coordinates":[[9.1607239,47.65837],[9.1608836,47.6587679],[9.1610256,47.6593104]]}},{"type":"Feature","properties":{"highway":"motorway","junction":"roundabout","lanes":"2","maxspeed":"50","ref":"A7","surface":"asphalt","toll":"no","width":"8.9","carriage_ref":"B"},"geometry":{"type":"LineString","coordinates":[[9.1590999,47.6552424],[9.1592094,47.6552483],[9.1593114,47.6552759],[9.1593967,47.6553226],[9.1594379,47.6553595],[9.1594682,47.6554009],[9.1594865,47.6554454],[9.1594922,47.6554914],[9.1594851,47.6555373],[9.1594695,47.6555747],[9.159441,47.6556125]]}},{"type":"Feature","properties":{"bridge":"yes","highway":"motorway","lanes":"2","layer":"1","maxspeed":"120","oneway":"yes","ref":"A7","toll":"yes","carriage_ref":"B"},"geometry":{"type":"LineString","coordinates":[[8.8268531,47.5495936],[8.82692,47.5496464]]}},{"type":"Feature","properties":{"bridge":"yes","highway":"motorway","lanes":"2","layer":"1","maxspeed":"120","oneway":"yes","ref":"A7","toll":"yes","carriage_ref":"B"},"geometry":{"type":"LineString","coordinates":[[8.8306754,47.5518292],[8.8309525,47.5519429]]}},{"type":"Feature","properties":{"bridge":"yes","highway":"motorway","lanes":"2","layer":"1","maxspeed":"120","oneway":"yes","ref":"A7","toll":"yes","carriage_ref":"A"},"geometry":{"type":"LineString","coordinates":[[8.8706211,47.5608558],[8.870019,47.5605643]]}},{"type":"Feature","properties":{"highway":"motorway","lanes":"2","maxspeed":"120","oneway":"yes","ref":"A7","toll":"yes","carriage_ref":"A"},"geometry":{"type":"LineString","coordinates":[[8.8951637,47.5660803],[8.8938981,47.5659553],[8.892239,47.5658512],[8.8903912,47.5657633],[8.8890644,47.5656946],[8.8880102,47.5656248],[8.886924,47.5655325],[8.8860849,47.5654399],[8.885247,47.5653342],[8.8843929,47.5652104],[8.8836151,47.5650833],[8.8826279,47.5649076],[8.8819797,47.5647795],[8.8811711,47.5646125],[8.8801816,47.5643794],[8.8792526,47.5641359],[8.8781369,47.5638159],[8.8772559,47.5635457],[8.8761933,47.5631893],[8.8753008,47.5628685],[8.8744828,47.5625629],[8.8740236,47.562371],[8.873291,47.562066],[8.8725082,47.5617252],[8.8706211,47.5608558]]}},{"type":"Feature","properties":{"destination":"Zürich;Frauenfeld;Kreuzlingen Süd","highway":"motorway","lanes":"2","maxspeed":"60","oneway":"yes","ref":"A7","source":"Bing","start_date":"2002","toll":"yes","carriage_ref":"A"},"geometry":{"type":"LineString","coordinates":[[9.1588045,47.655369],[9.1587782,47.6552735],[9.1587526,47.6551819],[9.1586574,47.6550458],[9.1583379,47.6546827]]}},{"type":"Feature","properties":{"highway":"motorway","lanes":"2","maxspeed":"120","oneway":"yes","ref":"A7","toll":"yes","carriage_ref":"B"},"geometry":{"type":"LineString","coordinates":[[8.915924,47.5741073],[8.9179053,47.5752056],[8.9199584,47.5763654],[8.923707,47.5785754],[8.9259018,47.5798667],[8.9278427,47.5809646],[8.9291827,47.5816831],[8.9305905,47.5823957]]}},{"type":"Feature","properties":{"destination:colour:lanes":"yellow|yellow|yellow|white","destination:lanes":"|Alle Richtungen|Alle Richtungen|Zentrum","destination:ref:lanes":"|B 33|B 33|","destination:symbol:lanes":"|motorway;ferry|motorway;ferry|information;train_station;parking","highway":"motorway","is_in":"Schweiz, Europe","lanes":"4","maxspeed":"50","oneway":"yes","ref":"A7","toll":"no","turn:lanes":"left|through|through|slight_right","carriage_ref":"B"},"geometry":{"type":"LineString","coordinates":[[9.1613522,47.661117],[9.1613998,47.6614357]]}},{"type":"Feature","properties":{"highway":"motorway","lanes":"2","lit":"yes","maxspeed":"50","oneway":"yes","ref":"A7","shoulder":"none","source:maxspeed":"sign","surface":"asphalt","toll":"no","carriage_ref":"B"},"geometry":{"type":"LineString","coordinates":[[9.1610256,47.6593104],[9.1611223,47.6598438],[9.1612867,47.6607192],[9.1613164,47.6608774],[9.1613397,47.6610331],[9.1613522,47.661117]]}},{"type":"Feature","properties":{"highway":"motorway","lanes":"3","lit":"yes","maxspeed":"20","oneway":"yes","placement":"right_of:1","ref":"A7","shoulder":"none","source:maxspeed":"sign","surface":"asphalt","toll":"no","turn:lanes":"none|none|slight_right","carriage_ref":"A"},"geometry":{"type":"LineString","coordinates":[[9.1605642,47.6583801],[9.1602931,47.6577348]]}},{"type":"Feature","properties":{"highway":"motorway","lanes":"2","maxspeed":"120","oneway":"yes","ref":"A7","toll":"yes","carriage_ref":"B"},"geometry":{"type":"LineString","coordinates":[[8.8616786,47.5567976],[8.8627112,47.5571615],[8.8637437,47.5575608],[8.8654652,47.55829],[8.8681713,47.5595424],[8.8700208,47.5604345]]}},{"type":"Feature","properties":{"highway":"motorway","lanes":"2","maxspeed":"100","oneway":"yes","ref":"A7","source":"Bing","start_date":"2002","surface":"asphalt","toll":"yes","carriage_ref":"B"},"geometry":{"type":"LineString","coordinates":[[9.1538534,47.6507014],[9.1539981,47.6509155],[9.1542885,47.6512613]]}},{"type":"Feature","properties":{"highway":"motorway","lanes":"2","maxspeed":"120","oneway":"yes","ref":"A7","toll":"yes","carriage_ref":"A"},"geometry":{"type":"LineString","coordinates":[[8.9158271,47.5741953],[8.9129509,47.5726791],[8.9104964,47.5714362],[8.9097966,47.5710882],[8.9077403,47.5700946],[8.9054486,47.5690461],[8.9039239,47.5684037],[8.9034396,47.5682111],[8.9026302,47.5679102],[8.9016138,47.5675549],[8.9011081,47.5673877],[8.8999862,47.5670466],[8.8989717,47.5667727],[8.8977887,47.5665002],[8.8967359,47.5663006],[8.8956376,47.5661381]]}},{"type":"Feature","properties":{"avz":"246","cs_dir:forward":"2","highway":"motorway","lanes":"2","maxspeed":"100","oneway":"yes","ref":"A7","source":"Bing","ssvz":"1105N","start_date":"2002","surface":"asphalt","toll":"yes","carriage_ref":"A"},"geometry":{"type":"LineString","coordinates":[[9.1583379,47.6546827],[9.1578586,47.654224],[9.1571484,47.6536277],[9.1566952,47.6533083],[9.1558975,47.6527576],[9.1552881,47.652337],[9.1550566,47.6521735],[9.1547577,47.6519121],[9.1544373,47.6516144],[9.1541551,47.6513019]]}},{"type":"Feature","properties":{"highway":"motorway","lanes":"2","maxspeed":"120","oneway":"yes","ref":"A7","toll":"yes","carriage_ref":"A"},"geometry":{"type":"LineString","coordinates":[[8.870019,47.5605643],[8.8686899,47.5599225],[8.8669679,47.5591032],[8.8654025,47.5583932],[8.8636869,47.5576639],[8.8626048,47.5572493],[8.8615899,47.5568942]]}},{"type":"Feature","properties":{"avz":"236","cs_dir:forward":"1","highway":"motorway","is_in":"Schweiz, Europe","lanes":"1","maxspeed":"50","oneway":"yes","ref":"A7","ssvz":"1103N","surface":"asphalt","toll":"no","carriage_ref":"A"},"geometry":{"type":"LineString","coordinates":[[9.1593401,47.6558742],[9.1592905,47.6558191],[9.1592265,47.655771],[9.1591638,47.6557347]]}},{"type":"Feature","properties":{"highway":"motorway","lanes":"2","maxspeed":"120","oneway":"yes","ref":"A7","toll":"yes","carriage_ref":"A"},"geometry":{"type":"LineString","coordinates":[[9.1197963,47.6233506],[9.1185159,47.6227421],[9.1176462,47.6222961],[9.1157511,47.6212581],[9.1110376,47.6184706],[9.1077104,47.6166222],[9.1065968,47.6160708],[9.1055535,47.6155883],[9.1043354,47.6150726],[9.1031492,47.6146214],[9.1011677,47.6139612],[9.0999113,47.6136085],[9.0989526,47.6133588],[9.0972758,47.6129807],[9.0951527,47.6126068],[9.0930535,47.6123334],[9.091416,47.6121882],[9.0899502,47.612108],[9.0882408,47.6120787],[9.0864932,47.6120952],[9.0841927,47.6121858],[9.0781439,47.6125612],[9.076247,47.6126505],[9.0743262,47.6127087],[9.0721028,47.6127293],[9.069704,47.6127043],[9.0674155,47.6126307],[9.0651533,47.6125224],[9.0632881,47.6123942],[9.0613418,47.6122291],[9.0594697,47.6120421],[9.0575685,47.6118143],[9.0555731,47.6115399],[9.0526638,47.611076],[9.0512731,47.6108174],[9.0498764,47.6105493],[9.0477376,47.6101108],[9.0454757,47.6096131],[9.0421286,47.6088423],[9.0387596,47.6080491],[9.0379416,47.6078575],[9.0350806,47.6071736],[9.0321413,47.6064806],[9.0265579,47.6051546]]}},{"type":"Feature","properties":{"highway":"motorway","lanes":"2","maxspeed":"120","oneway":"yes","ref":"A7","toll":"yes","carriage_ref":"A"},"geometry":{"type":"LineString","coordinates":[[9.0246485,47.6046846],[9.0228746,47.6042021],[9.0215586,47.6038044],[9.020473,47.6034372],[9.0194889,47.6030641],[9.0186652,47.6027202],[9.0176306,47.6022376],[9.017125,47.6019745],[9.0164872,47.6016426],[9.0154276,47.6010172],[9.01451,47.6004248],[9.0136522,47.5998161],[9.0127037,47.5991104],[9.0117616,47.5983779],[9.0103614,47.5972584],[9.0091119,47.5962505],[9.0077707,47.5952357]]}},{"type":"Feature","properties":{"highway":"motorway","lanes":"2","layer":"-1","maxspeed":"100","oneway":"yes","ref":"A7","start_date":"2002","toll":"yes","tunnel":"yes","carriage_ref":"B"},"geometry":{"type":"LineString","coordinates":[[9.1435661,47.6310687],[9.1436351,47.6315159]]}},{"type":"Feature","properties":{"avz":"236","cs_dir:forward":"2","destination":"Konstanz","destination:colour":"green","destination:country":"D","highway":"motorway","lanes":"2","maxspeed":"20","oneway":"yes","placement":"middle_of:2","ref":"A7","ssvz":"1103N","surface":"asphalt","toll":"no","carriage_ref":"B"},"geometry":{"type":"LineString","coordinates":[[9.159441,47.6556125],[9.1594528,47.6557107],[9.1594728,47.655783]]}},{"type":"Feature","properties":{"bridge":"yes","highway":"motorway","lanes":"2","layer":"1","maxspeed":"120","oneway":"yes","ref":"A7","surface":"asphalt","toll":"yes","carriage_ref":"A"},"geometry":{"type":"LineString","coordinates":[[8.9985277,47.5904955],[8.9978494,47.5902652],[8.997055,47.5900267]]}},{"type":"Feature","properties":{"highway":"motorway","lanes":"2","maxspeed":"120","oneway":"yes","ref":"A7","toll":"yes","carriage_ref":"B"},"geometry":{"type":"LineString","coordinates":[[8.8110686,47.5395733],[8.8125006,47.5404372],[8.8137769,47.5411439],[8.8171584,47.5429075],[8.8191556,47.5439822],[8.8195766,47.5442311],[8.820674,47.5448943],[8.8212812,47.5452947],[8.8218761,47.5456975],[8.8228119,47.546404],[8.8253449,47.5484349],[8.8268531,47.5495936]]}},{"type":"Feature","properties":{"highway":"motorway","lanes":"2","maxspeed":"120","oneway":"yes","ref":"A7","toll":"yes","carriage_ref":"B"},"geometry":{"type":"LineString","coordinates":[[9.0078667,47.5951815],[9.0091976,47.5961947],[9.0104619,47.5972026],[9.0118768,47.5983381],[9.0128116,47.5990688],[9.0137379,47.5997543],[9.0145791,47.6003495],[9.0154719,47.6009275],[9.0165383,47.6015581],[9.0177015,47.6021702],[9.0187006,47.6026325],[9.0195391,47.6029876],[9.0205291,47.6033595],[9.0216206,47.6037336],[9.0229426,47.6041323],[9.0246989,47.6046019]]}},{"type":"Feature","properties":{"destination:lanes":"||Attikon","destination:to:lanes":"St. Gallen","highway":"motorway","lanes":"3","maxspeed":"120","oneway":"yes","ref":"A7","toll":"yes","turn:lanes":"through|through|slight_right","carriage_ref":"A"},"geometry":{"type":"LineString","coordinates":[[8.8061341,47.5366647],[8.8051225,47.5360752]]}},{"type":"Feature","properties":{"highway":"motorway","lanes":"2","maxspeed":"120","oneway":"yes","ref":"A7","surface":"asphalt","toll":"yes","carriage_ref":"B"},"geometry":{"type":"LineString","coordinates":[[8.9305905,47.5823957],[8.931927,47.58304],[8.9333811,47.5836786],[8.9345531,47.5841479],[8.9357953,47.5846082],[8.9371083,47.5850505],[8.9384497,47.58546],[8.9402868,47.5859471],[8.9415825,47.5862489],[8.9433737,47.5866026],[8.9450323,47.5868715],[8.9465582,47.5870788],[8.9478529,47.5872228],[8.9509437,47.5874746],[8.9527113,47.5875689],[8.9539257,47.5876131],[8.9564866,47.5876864],[8.9586033,47.5877166],[8.9606633,47.5877298],[8.96506,47.5877708],[8.9680258,47.5877967],[8.9708864,47.5878128],[8.9732273,47.5878343],[8.9760016,47.5878565],[8.9784094,47.5878766],[8.9809437,47.5879043],[8.9828313,47.5879441],[8.9845706,47.5880096],[8.9860157,47.5880856],[8.9875024,47.588192],[8.9892842,47.5883564]]}},{"type":"Feature","properties":{"avz":"236","cs_dir:forward":"1","highway":"motorway","is_in":"Schweiz, Europe","lanes":"2","maxspeed":"50","oneway":"yes","ref":"A7","ssvz":"1103N","surface":"asphalt","toll":"no","turn:lanes":"merge_to_right|through","carriage_ref":"A"},"geometry":{"type":"LineString","coordinates":[[9.1595081,47.6561168],[9.1594005,47.6559597],[9.1593401,47.6558742]]}},{"type":"Feature","properties":{"highway":"motorway","lanes":"2","maxspeed":"120","oneway":"yes","ref":"A7","toll":"yes","carriage_ref":"A"},"geometry":{"type":"LineString","coordinates":[[8.8613104,47.5567951],[8.8606996,47.5566011],[8.8597466,47.5563159],[8.8585588,47.5559846],[8.8575435,47.5557373],[8.8565849,47.5555262],[8.855159,47.5552446],[8.853697,47.5550115],[8.85235,47.5548328],[8.8505313,47.554663],[8.8493401,47.5545899],[8.8481495,47.5545421],[8.8431861,47.5544513]]}},{"type":"Feature","properties":{"highway":"motorway","lanes":"2","maxspeed":"120","oneway":"yes","ref":"A7","toll":"yes","carriage_ref":"B"},"geometry":{"type":"LineString","coordinates":[[9.0266207,47.6050782],[9.0321295,47.606385],[9.0358295,47.6072658],[9.0387946,47.607965],[9.0421788,47.6087606],[9.0455317,47.6095351],[9.0477376,47.6100232],[9.0499104,47.610466],[9.0513182,47.6107411],[9.0526976,47.6109848],[9.0556112,47.611454],[9.0575731,47.6117267],[9.0594807,47.6119539],[9.0613831,47.6121492],[9.0632989,47.6123115],[9.0651712,47.6124425],[9.0673863,47.6125519],[9.0697236,47.6126182],[9.0721028,47.612642],[9.0743281,47.6126228],[9.0762553,47.6125603],[9.0781458,47.6124733],[9.0841817,47.6121092],[9.085751,47.6120365],[9.0872685,47.6119862],[9.0885207,47.6119971],[9.0899598,47.6120248],[9.091303,47.6120995],[9.0926783,47.6122139],[9.0937793,47.6123283],[9.095131,47.6125187],[9.0954822,47.6125704],[9.0973214,47.6129054],[9.0989686,47.6132698],[9.1005852,47.6136999],[9.1013821,47.6139258],[9.1032703,47.6145507],[9.1045589,47.6150614],[9.1056434,47.6155291],[9.1069164,47.6161196],[9.1075918,47.616446],[9.1093321,47.6173828],[9.1112247,47.6184611],[9.1157561,47.6211423],[9.1176951,47.6222161],[9.1186505,47.6227005],[9.1198696,47.6232718]]}},{"type":"Feature","properties":{"highway":"motorway","lanes":"2","maxspeed":"120","oneway":"yes","ref":"A7","toll":"yes","carriage_ref":"A"},"geometry":{"type":"LineString","coordinates":[[8.8077036,47.5376338],[8.8068163,47.5370797],[8.8061341,47.5366647]]}},{"type":"Feature","properties":{"highway":"motorway","junction":"roundabout","lanes":"2","maxspeed":"50","ref":"A7","surface":"asphalt","toll":"no","width":"8.9"},"geometry":{"type":"LineString","coordinates":[[9.1588045,47.655369],[9.1588582,47.6553195],[9.1589283,47.6552804],[9.1590106,47.6552542],[9.1590999,47.6552424]]}},{"type":"Feature","properties":{"highway":"motorway","lanes":"2","maxspeed":"120","oneway":"yes","ref":"A7","surface":"asphalt","toll":"yes","carriage_ref":"B"},"geometry":{"type":"LineString","coordinates":[[8.789251,47.5318464],[8.7901697,47.5318313],[8.7908038,47.5317987],[8.791242,47.5317795],[8.7926995,47.5316944],[8.7937891,47.5316728],[8.7945417,47.5316916],[8.7953989,47.5317563],[8.7961937,47.5318564],[8.7967028,47.531945],[8.7972093,47.5320499],[8.7979594,47.5322519],[8.7986918,47.5324671],[8.7994781,47.5327572],[8.8005096,47.5331896],[8.801494,47.5336752],[8.80238,47.534154],[8.8029726,47.5345008],[8.8030509,47.5345423],[8.8046198,47.5355175],[8.8059966,47.5363895],[8.8070221,47.5370326],[8.8080382,47.5376758]]}},{"type":"Feature","properties":{"bridge":"yes","highway":"motorway","lanes":"2","layer":"1","maxspeed":"120","oneway":"yes","ref":"A7","toll":"yes","carriage_ref":"A"},"geometry":{"type":"LineString","coordinates":[[8.826695,47.5496568],[8.8266221,47.5496042]]}},{"type":"Feature","properties":{"bridge":"yes","highway":"motorway","lanes":"2","layer":"1","maxspeed":"120","oneway":"yes","ref":"A7","toll":"yes","carriage_ref":"B"},"geometry":{"type":"LineString","coordinates":[[8.8080382,47.5376758],[8.8082443,47.5378114]]}},{"type":"Feature","properties":{"bridge":"yes","highway":"motorway","lanes":"2","layer":"1","maxspeed":"120","oneway":"yes","ref":"A7","toll":"yes","carriage_ref":"A"},"geometry":{"type":"LineString","coordinates":[[8.8308781,47.5520395],[8.8306063,47.5519235]]}},{"type":"Feature","properties":{"highway":"motorway","lanes":"2","maxspeed":"120","oneway":"yes","ref":"A7","toll":"yes","carriage_ref":"B"},"geometry":{"type":"LineString","coordinates":[[8.895691,47.5660334],[8.8967604,47.5661952],[8.897835,47.5663997],[8.8990313,47.5666722],[8.9000343,47.5669415],[8.9011741,47.567289],[8.9024674,47.5677316],[8.9027943,47.567852],[8.9034336,47.5680895],[8.9044901,47.5685112],[8.9059288,47.5691305],[8.9079187,47.5700495],[8.9099886,47.5710504],[8.9107283,47.5714157],[8.9130583,47.572598],[8.915924,47.5741073]]}},{"type":"Feature","properties":{"highway":"motorway","lanes":"2","layer":"-1","maxspeed":"120","name":"Fuchswiestunnel","oneway":"yes","ref":"A7","toll":"yes","tunnel":"yes","tunnel:alt_name":"Fuchswis","tunnel:name":"Fuchswies","carriage_ref":"A"},"geometry":{"type":"LineString","coordinates":[[9.1220639,47.6242782],[9.1209897,47.6238814],[9.1197963,47.6233506]]}},{"type":"Feature","properties":{"bridge":"yes","highway":"motorway","lanes":"2","layer":"1","maxspeed":"120","oneway":"yes","ref":"A7","toll":"yes","carriage_ref":"A"},"geometry":{"type":"LineString","coordinates":[[8.8106631,47.5394955],[8.8104168,47.5393378]]}},{"type":"Feature","properties":{"highway":"motorway","lanes":"2","maxspeed":"120","oneway":"yes","ref":"A7","toll":"yes","turn:lanes":"merge_to_right|none","carriage_ref":"A"},"geometry":{"type":"LineString","coordinates":[[8.7985966,47.5333498],[8.7978902,47.5331793],[8.796606,47.5329119],[8.7957067,47.5327601]]}},{"type":"Feature","properties":{"avz":"587","cs_dir:forward":"2","highway":"motorway","is_in":"Schweiz, Europe","lanes":"2","maxspeed":"20","oneway":"yes","ref":"A7","surface":"asphalt","toll":"no","carriage_ref":"A"},"geometry":{"type":"LineString","coordinates":[[9.1597193,47.6564611],[9.1595081,47.6561168]]}},{"type":"Feature","properties":{"highway":"motorway","lanes":"2","maxspeed":"120","oneway":"yes","ref":"A7","toll":"yes","carriage_ref":"B"},"geometry":{"type":"LineString","coordinates":[[8.82692,47.5496464],[8.8274342,47.5500018],[8.8279639,47.550351],[8.8286694,47.550785],[8.8292368,47.551102],[8.8300172,47.5515113],[8.8306754,47.5518292]]}},{"type":"Feature","properties":{"highway":"motorway","lanes":"2","maxspeed":"120","oneway":"yes","ref":"A7","source":"Bing","toll":"yes","carriage_ref":"B"},"geometry":{"type":"LineString","coordinates":[[9.1221972,47.6242123],[9.1238109,47.6247448],[9.1249553,47.6250638],[9.1261059,47.6253264],[9.1275916,47.6255837],[9.129263,47.6257699],[9.1308216,47.6258481],[9.1328338,47.6258567],[9.1343104,47.6258581],[9.1359133,47.6259132],[9.1370459,47.6260056],[9.1379364,47.6261357],[9.1387601,47.626319],[9.1395157,47.6265391],[9.1403142,47.6268583],[9.1410285,47.6272371],[9.141421,47.6274904],[9.1418091,47.6277953],[9.142398,47.6283555],[9.142817,47.6289088],[9.1431748,47.6296254],[9.1433647,47.6302024],[9.1435661,47.6310687]]}},{"type":"Feature","properties":{"change:lanes":"no|no","destination:country:lanes":"D|","destination:lanes":"Konstanz|Kreuzlingen Nord;Romanshorn;Schaffhausen;Tägerwilen","highway":"motorway","lanes":"2","maxspeed":"60","oneway":"yes","ref":"A7","source":"Bing","start_date":"2002","surface":"asphalt","toll":"yes","turn:lanes":"through|slight_right","carriage_ref":"B"},"geometry":{"type":"LineString","coordinates":[[9.1580049,47.6541774],[9.1585643,47.6547326],[9.1587011,47.654883]]}},{"type":"Feature","properties":{"highway":"motorway","lanes":"2","maxspeed":"120","oneway":"yes","ref":"A7","toll":"yes","carriage_ref":"B"},"geometry":{"type":"LineString","coordinates":[[8.8082443,47.5378114],[8.8093524,47.5385129],[8.8108104,47.5394144]]}},{"type":"Feature","properties":{"bridge":"yes","highway":"motorway","lanes":"2","layer":"1","maxspeed":"120","oneway":"yes","ref":"A7","toll":"yes","carriage_ref":"A"},"geometry":{"type":"LineString","coordinates":[[8.8079386,47.5377757],[8.8077036,47.5376338]]}},{"type":"Feature","properties":{"highway":"motorway","lanes":"2","maxspeed":"120","oneway":"yes","ref":"A7","toll":"yes","carriage_ref":"B"},"geometry":{"type":"LineString","coordinates":[[8.8432593,47.5543405],[8.8481784,47.5544255],[8.849365,47.5544802],[8.8498924,47.554514],[8.8505453,47.5545558],[8.8524263,47.5547357],[8.8537451,47.5549066],[8.8551802,47.5551383],[8.8566485,47.5554213],[8.8575978,47.5556385],[8.8586428,47.5558909],[8.8598016,47.5562152],[8.8607496,47.5564967],[8.8614116,47.5567107]]}},{"type":"Feature","properties":{"highway":"motorway","lanes":"2","maxspeed":"100","oneway":"yes","ref":"A7","source":"Bing","start_date":"2002","toll":"yes","carriage_ref":"A"},"geometry":{"type":"LineString","coordinates":[[9.145682,47.6368762],[9.1453274,47.6364416],[9.1450748,47.6360916],[9.1447914,47.6356426],[9.1445215,47.6351262],[9.1443376,47.6347262],[9.1438803,47.633332],[9.1435567,47.6317695],[9.1435081,47.6315263]]}},{"type":"Feature","properties":{"highway":"motorway","lanes":"2","maxspeed":"120","oneway":"yes","ref":"A7","toll":"yes","carriage_ref":"A"},"geometry":{"type":"LineString","coordinates":[[8.8104168,47.5393378],[8.8092324,47.538592],[8.8079386,47.5377757]]}},{"type":"Feature","properties":{"highway":"motorway","lanes":"2","layer":"-1","maxspeed":"100","name":"Girsbergtunnel","oneway":"yes","ref":"A7","start_date":"2002","toll":"yes","tunnel":"yes","tunnel:name":"Girsberg","carriage_ref":"A"},"geometry":{"type":"LineString","coordinates":[[9.1537249,47.6507535],[9.1534141,47.6501491],[9.153262,47.649536],[9.1530915,47.6480592],[9.1532117,47.6465154],[9.152947,47.6447806],[9.152226,47.6432887],[9.1509214,47.6417851],[9.1492048,47.6403972],[9.1473444,47.6386553],[9.145682,47.6368762]]}},{"type":"Feature","properties":{"highway":"motorway","lanes":"2","layer":"-1","maxspeed":"100","name":"Girsbergtunnel","oneway":"yes","ref":"A7","start_date":"2002","toll":"yes","tunnel":"yes","tunnel:name":"Girsberg","carriage_ref":"B"},"geometry":{"type":"LineString","coordinates":[[9.1459421,47.6368766],[9.1474989,47.6384818],[9.1493421,47.6402815],[9.1511274,47.6417157],[9.1524149,47.6432424],[9.1531616,47.6447691],[9.1533971,47.6465154],[9.1532538,47.6481149],[9.1534276,47.6495234],[9.1535658,47.6500934],[9.1538534,47.6507014]]}},{"type":"Feature","properties":{"highway":"motorway","lanes":"2","maxspeed":"120","oneway":"yes","ref":"A7","toll":"yes","carriage_ref":"A"},"geometry":{"type":"LineString","coordinates":[[8.8306063,47.5519235],[8.82991,47.5516094],[8.8290937,47.5511808],[8.828548,47.5508771],[8.8278057,47.5504229],[8.8272437,47.5500507],[8.826695,47.5496568]]}},{"type":"Feature","properties":{"highway":"motorway","lanes":"2","lit":"yes","maxspeed":"20","oneway":"yes","ref":"A7","surface":"asphalt","toll":"no","carriage_ref":"A"},"geometry":{"type":"LineString","coordinates":[[9.1602931,47.6577348],[9.1599564,47.6568874],[9.1599119,47.6567753],[9.1597193,47.6564611]]}},{"type":"Feature","properties":{"highway":"motorway","lanes":"2","maxspeed":"100","oneway":"yes","ref":"A7","source":"Bing","start_date":"2002","surface":"asphalt","toll":"yes","carriage_ref":"A"},"geometry":{"type":"LineString","coordinates":[[9.1541551,47.6513019],[9.1539616,47.6510759],[9.1537249,47.6507535]]}},{"type":"Feature","properties":{"bridge":"yes","highway":"motorway","lanes":"2","layer":"1","maxspeed":"120","oneway":"yes","ref":"A7","toll":"yes","carriage_ref":"A"},"geometry":{"type":"LineString","coordinates":[[8.8615899,47.5568942],[8.8613104,47.5567951]]}},{"type":"Feature","properties":{"highway":"motorway","junction":"roundabout","lanes":"2","maxspeed":"50","ref":"A7","surface":"asphalt","toll":"no","width":"8.9","carriage_ref":"A"},"geometry":{"type":"LineString","coordinates":[[9.1591638,47.6557347],[9.1590611,47.6557323],[9.1589634,47.6557107],[9.1588784,47.6556718],[9.1588245,47.6556304],[9.1587854,47.655582],[9.1587632,47.655529],[9.158759,47.6554741],[9.158773,47.6554198],[9.1588045,47.655369]]}},{"type":"Feature","properties":{"highway":"motorway","lanes":"2","layer":"-1","maxspeed":"100","oneway":"yes","ref":"A7","start_date":"2002","toll":"yes","tunnel":"yes","carriage_ref":"A"},"geometry":{"type":"LineString","coordinates":[[9.1435081,47.6315263],[9.1433922,47.6310831]]}},{"type":"Feature","properties":{"highway":"motorway","lanes":"2","maxspeed":"120","oneway":"yes","ref":"A7","toll":"yes","carriage_ref":"A"},"geometry":{"type":"LineString","coordinates":[[8.9305152,47.5824954],[8.9290675,47.5817608],[8.9277056,47.5810247],[8.9257837,47.5799404],[8.9236095,47.5786631],[8.9199288,47.576493],[8.9178197,47.5752933],[8.9158271,47.5741953]]}},{"type":"Feature","properties":{"highway":"motorway","lanes":"2","maxspeed":"120","oneway":"yes","ref":"A7","toll":"yes","carriage_ref":"B"},"geometry":{"type":"LineString","coordinates":[[8.8309525,47.5519429],[8.8315668,47.5522124],[8.8328013,47.5526761],[8.833757,47.5529903],[8.8345548,47.5532099],[8.8360611,47.5535894],[8.8373343,47.5538336],[8.8386009,47.5540206]]}},{"type":"Feature","properties":{"highway":"motorway","lanes":"2","maxspeed":"120","oneway":"yes","ref":"A7","surface":"asphalt","toll":"yes","first":"true","carriage_ref":"B"},"geometry":{"type":"LineString","coordinates":[[8.7870306,47.5317824],[8.7884675,47.5318303],[8.7891153,47.5318479],[8.789251,47.5318464]]}},{"type":"Feature","properties":{"highway":"motorway","lanes":"3","lit":"yes","maxspeed":"60","oneway":"yes","placement":"right_of:1","ref":"A7","shoulder":"none","source:maxspeed":"sign","surface":"asphalt","toll":"no","turn:lanes":"none|none|through;slight_right","carriage_ref":"A"},"geometry":{"type":"LineString","coordinates":[[9.1609117,47.6594013],[9.1608113,47.6590268],[9.1606717,47.6586443],[9.1605642,47.6583801]]}},{"type":"Feature","properties":{"bridge":"yes","highway":"motorway","lanes":"2","layer":"1","maxspeed":"120","oneway":"yes","ref":"A7","surface":"asphalt","toll":"yes","carriage_ref":"B"},"geometry":{"type":"LineString","coordinates":[[8.9973059,47.5899779],[8.9980149,47.5902034],[8.998666,47.5904226]]}},{"type":"Feature","properties":{"highway":"motorway","lanes":"2","maxspeed":"100","oneway":"yes","ref":"A7","source":"Bing","start_date":"2002","toll":"yes","carriage_ref":"B"},"geometry":{"type":"LineString","coordinates":[[9.1436351,47.6315159],[9.1438858,47.6327696],[9.1439178,47.6328942],[9.1440534,47.6334814],[9.1441858,47.6339326],[9.1443305,47.6343434],[9.1445206,47.6348071],[9.1446671,47.6351428],[9.144892,47.6355629],[9.1450939,47.635875],[9.1453721,47.6362439],[9.1455766,47.6364871],[9.1459421,47.6368766]]}},{"type":"Feature","properties":{"highway":"motorway","junction":"roundabout","lanes":"2","maxspeed":"50","ref":"A7","surface":"asphalt","toll":"no","width":"8.9"},"geometry":{"type":"LineString","coordinates":[[9.159441,47.6556125],[9.1593978,47.6556556],[9.1593478,47.6556855],[9.1592608,47.6557186],[9.1591638,47.6557347]]}},{"type":"Feature","properties":{"highway":"motorway","lanes":"2","lit":"yes","maxspeed":"60","oneway":"yes","ref":"A7","shoulder":"none","source:maxspeed":"sign","surface":"asphalt","toll":"no","carriage_ref":"B"},"geometry":{"type":"LineString","coordinates":[[9.160527,47.6579266],[9.1607239,47.65837]]}},{"type":"Feature","properties":{"highway":"motorway","lanes":"2","maxspeed":"120","oneway":"yes","ref":"A7","toll":"yes","carriage_ref":"B"},"geometry":{"type":"LineString","coordinates":[[8.8706206,47.5607196],[8.8723489,47.5615274],[8.8733353,47.5619624],[8.8743721,47.5623909],[8.874896,47.5625945],[8.8761142,47.5630443],[8.877306,47.563443],[8.8783894,47.5637788],[8.8795194,47.5640908],[8.8803313,47.5643012],[8.8812968,47.564523],[8.8821499,47.5647065],[8.8828348,47.5648405],[8.8836662,47.5649782],[8.8844361,47.5651057],[8.8853124,47.5652335],[8.8861078,47.5653357],[8.8869498,47.5654266],[8.8880255,47.5655195],[8.8890751,47.5655915],[8.8903942,47.5656602],[8.8922449,47.5657456],[8.8939105,47.5658514],[8.8951872,47.5659714]]}},{"type":"Feature","properties":{"highway":"motorway","lanes":"2","maxspeed":"120","oneway":"yes","ref":"A7","surface":"asphalt","toll":"yes","carriage_ref":"A"},"geometry":{"type":"LineString","coordinates":[[9.0077707,47.5952357],[9.0059343,47.5939829],[9.0043458,47.5930425],[9.0028362,47.5922658]]}},{"type":"Feature","properties":{"highway":"motorway","lanes":"2","maxspeed":"120","oneway":"yes","ref":"A7","toll":"yes","carriage_ref":"A"},"geometry":{"type":"LineString","coordinates":[[8.8266221,47.5496042],[8.8251903,47.5484747],[8.82292,47.5466514],[8.8223353,47.5462053],[8.8217293,47.5457721],[8.8211498,47.5453725],[8.8205516,47.5449855],[8.8194579,47.5443139],[8.8190412,47.5440628],[8.8170183,47.5429858],[8.8145792,47.5417294],[8.8136785,47.5412399],[8.8127947,47.5407421],[8.8106631,47.5394955]]}},{"type":"Feature","properties":{"highway":"motorway","lanes":"2","maxspeed":"120","oneway":"yes","ref":"A7","surface":"asphalt","toll":"yes","carriage_ref":"A"},"geometry":{"type":"LineString","coordinates":[[8.8051225,47.5360752],[8.8048747,47.5359213],[8.8044956,47.5357084],[8.8037627,47.5353209],[8.8031314,47.5350033],[8.802663,47.5347798],[8.801945,47.5344691],[8.8012959,47.5342079],[8.8005297,47.5339273],[8.7999708,47.5337415],[8.7991546,47.5335024],[8.7985966,47.5333498]]}},{"type":"Feature","properties":{"highway":"motorway","lanes":"2","maxspeed":"120","oneway":"yes","ref":"A7","surface":"asphalt","toll":"yes","carriage_ref":"B"},"geometry":{"type":"LineString","coordinates":[[8.998666,47.5904226],[8.9996755,47.5907882],[9.0007813,47.5912453],[9.0015988,47.5915942],[9.0022415,47.59188],[9.0030599,47.5922663]]}},{"type":"Feature","properties":{"change:lanes":"no|no","destination:country:lanes":"D|","destination:lanes":"Konstanz|Kreuzlingen Nord;Romanshorn;Schaffhausen;Tägerwilen","highway":"motorway","lanes":"2","maxspeed":"50","oneway":"yes","ref":"A7","source":"Bing","start_date":"2002","surface":"asphalt","toll":"yes","turn:lanes":"through|slight_right","carriage_ref":"B"},"geometry":{"type":"LineString","coordinates":[[9.1587011,47.654883],[9.1588378,47.6550333],[9.1589882,47.6551655],[9.1590999,47.6552424]]}},{"type":"Feature","properties":{"highway":"motorway","lanes":"2","maxspeed":"120","oneway":"yes","ref":"A7","toll":"yes","carriage_ref":"A"},"geometry":{"type":"LineString","coordinates":[[8.8431861,47.5544513],[8.8413801,47.5543815],[8.8396101,47.554248],[8.8390417,47.5541825],[8.8385778,47.5541238]]}},{"type":"Feature","properties":{"avz":"587","bus:lanes":"no|designated|no|no","cs_dir:forward":"1","hgv:lanes":"no|no|designated|designated","highway":"motorway","lanes":"4","maxspeed":"20","oneway":"yes","placement":"middle_of:2","ref":"A7","source:maxspeed":"sign","surface":"asphalt","toll":"no","turn:lanes":"through|through|slight_right|slight_right","carriage_ref":"B"},"geometry":{"type":"LineString","coordinates":[[9.1595706,47.6559675],[9.1597306,47.6562192]]}},{"type":"Feature","properties":{"highway":"motorway","lanes":"1","maxspeed":"120","oneway":"yes","ref":"A7","surface":"asphalt","toll":"yes","last":"true","carriage_ref":"A"},"geometry":{"type":"LineString","coordinates":[[8.7957067,47.5327601],[8.7944502,47.5325759],[8.7933914,47.5324494],[8.7924315,47.5323491],[8.7915287,47.5322635],[8.7891978,47.5320844],[8.7885229,47.5320207]]}},{"type":"Feature","properties":{"bridge":"yes","highway":"motorway","lanes":"2","layer":"1","maxspeed":"120","oneway":"yes","ref":"A7","toll":"yes","carriage_ref":"B"},"geometry":{"type":"LineString","coordinates":[[8.8614116,47.5567107],[8.8616786,47.5567976]]}}],"ref":"A7","generator":"Quandopasso Path Importer","created":"2021-01-04T14:43:25.503Z","format":"1.0.0"}