{"type":"FeatureCollection","features":[{"type":"Feature","properties":{"highway":"motorway","oneway":"yes","proposed":"motorway","ref":"A53","last":"true","carriage_ref":"B"},"geometry":{"type":"LineString","coordinates":[[8.7846994,47.2927049],[8.7867489,47.2921687],[8.7887065,47.2915634]]}},{"type":"Feature","properties":{"highway":"motorway","oneway":"yes","proposed":"motorway","ref":"A53","last":"true","carriage_ref":"A"},"geometry":{"type":"LineString","coordinates":[[8.7437358,47.3467151],[8.7435002,47.3471979],[8.7434193,47.3474063],[8.7433235,47.3475942],[8.7431874,47.3478094],[8.7430412,47.3480247],[8.7428546,47.3482331],[8.7427033,47.3483868],[8.7425419,47.3485167],[8.7423755,47.3486397],[8.7421688,47.3487729],[8.7417956,47.3490257],[8.7405044,47.3498373]]}},{"type":"Feature","properties":{"highway":"motorway","layer":"-1","oneway":"yes","proposed":"motorway","ref":"A53","tunnel":"yes","carriage_ref":"B"},"geometry":{"type":"LineString","coordinates":[[8.7787713,47.3270006],[8.7788082,47.3264891],[8.7787073,47.3259094],[8.7777802,47.3225886],[8.7772922,47.3216227],[8.7770385,47.3208355],[8.776531,47.318553],[8.7760626,47.3157743],[8.7758479,47.3136107],[8.775721,47.31105],[8.7755942,47.3075099]]}},{"type":"Feature","properties":{"highway":"motorway","oneway":"yes","proposed":"motorway","ref":"A53","carriage_ref":"A"},"geometry":{"type":"LineString","coordinates":[[8.7789508,47.3270427],[8.7788265,47.3275338],[8.7785505,47.328198],[8.7778397,47.3289557],[8.776915,47.3297415],[8.7754993,47.330419],[8.7746642,47.3307883],[8.7742517,47.3309909],[8.7731953,47.3315094],[8.7727258,47.3317399],[8.7711347,47.3325209]]}},{"type":"Feature","properties":{"highway":"motorway","oneway":"yes","proposed":"motorway","ref":"A53","carriage_ref":"A"},"geometry":{"type":"LineString","coordinates":[[8.776248,47.3028643],[8.7760431,47.3035923],[8.7759065,47.3049357],[8.775926,47.3063783],[8.7760919,47.3071724]]}},{"type":"Feature","properties":{"highway":"motorway","layer":"-1","oneway":"yes","proposed":"motorway","ref":"A53","tunnel":"yes","carriage_ref":"B"},"geometry":{"type":"LineString","coordinates":[[8.7545778,47.3394129],[8.7550271,47.3391736],[8.7554532,47.3389741],[8.7710569,47.3324481]]}},{"type":"Feature","properties":{"carriage_ref":"A","first":"true","highway":"motorway","lanes":"1","oneway":"yes","proposed":"motorway","ref":"A53"},"geometry":{"type":"LineString","coordinates":[[8.7881451,47.2917587],[8.786892,47.2921753],[8.785755,47.2926651],[8.7845986,47.293135]]}},{"type":"Feature","properties":{"highway":"motorway","layer":"-1","oneway":"yes","proposed":"motorway","ref":"A53","tunnel":"yes","carriage_ref":"B"},"geometry":{"type":"LineString","coordinates":[[8.7758967,47.3030629],[8.7758674,47.3021893],[8.7761992,47.3004024],[8.7765506,47.2992178],[8.7771068,47.2980662],[8.7779364,47.2969873],[8.7791172,47.2957165],[8.7806396,47.2945715],[8.7822011,47.2936382],[8.7846994,47.2927049]]}},{"type":"Feature","properties":{"highway":"motorway","oneway":"yes","proposed":"motorway","ref":"A53","carriage_ref":"B"},"geometry":{"type":"LineString","coordinates":[[8.7443378,47.3453106],[8.745097,47.3444408],[8.7464136,47.3431357],[8.7467021,47.3428618],[8.7470136,47.3426565],[8.7478386,47.3422287],[8.7487604,47.3418589],[8.7519005,47.3408154],[8.752431,47.3406198],[8.7528829,47.3404035],[8.7533421,47.340168],[8.7545778,47.3394129]]}},{"type":"Feature","properties":{"highway":"motorway","layer":"-1","oneway":"yes","proposed":"motorway","ref":"A53","tunnel":"yes","carriage_ref":"A"},"geometry":{"type":"LineString","coordinates":[[8.7845986,47.293135],[8.7825004,47.2939657],[8.7810462,47.2948163],[8.7795991,47.2959208],[8.7784398,47.2971329],[8.7776945,47.2982093],[8.7771355,47.2992904],[8.7768181,47.3004182],[8.776492,47.3022026],[8.776248,47.3028643]]}},{"type":"Feature","properties":{"highway":"motorway","oneway":"yes","proposed":"motorway","ref":"A53","carriage_ref":"B"},"geometry":{"type":"LineString","coordinates":[[8.7755942,47.3075099],[8.7757015,47.3066563],[8.7757503,47.3061467],[8.7757698,47.3048894],[8.7758869,47.3035261],[8.7758967,47.3030629]]}},{"type":"Feature","properties":{"highway":"motorway","oneway":"yes","proposed":"motorway","ref":"A53","carriage_ref":"B"},"geometry":{"type":"LineString","coordinates":[[8.7710569,47.3324481],[8.772648,47.3316671],[8.7728014,47.3316069],[8.7731175,47.3314366],[8.7740521,47.3309779],[8.7741739,47.3309181],[8.774589,47.3307143],[8.7754269,47.3303438],[8.7767908,47.3296479],[8.7776879,47.3289089],[8.7783573,47.3281652],[8.7786333,47.3275291],[8.7787713,47.3270006]]}},{"type":"Feature","properties":{"bridge":"yes","highway":"motorway","layer":"1","oneway":"yes","proposed":"motorway","ref":"A53","carriage_ref":"A"},"geometry":{"type":"LineString","coordinates":[[8.7444578,47.3453496],[8.7439439,47.3462674],[8.7437358,47.3467151]]}},{"type":"Feature","properties":{"highway":"motorway","oneway":"yes","proposed":"motorway","ref":"A53","carriage_ref":"A"},"geometry":{"type":"LineString","coordinates":[[8.7546632,47.3394816],[8.7534267,47.3402374],[8.7529611,47.3404761],[8.7525012,47.3406962],[8.7519613,47.3408952],[8.7488234,47.3419381],[8.747913,47.3423033],[8.7471004,47.3427247],[8.7468031,47.3429206],[8.7465222,47.3431871],[8.745209,47.344489],[8.7444578,47.3453496]]}},{"type":"Feature","properties":{"bridge":"yes","highway":"motorway","layer":"1","oneway":"yes","proposed":"motorway","ref":"A53","carriage_ref":"B"},"geometry":{"type":"LineString","coordinates":[[8.7436146,47.3466861],[8.7438193,47.3462368],[8.7443378,47.3453106]]}},{"type":"Feature","properties":{"highway":"motorway","layer":"-1","oneway":"yes","proposed":"motorway","ref":"A53","tunnel":"yes","carriage_ref":"A"},"geometry":{"type":"LineString","coordinates":[[8.7760919,47.3071724],[8.7761602,47.307543],[8.7763261,47.3110434],[8.7764334,47.3135379],[8.7766677,47.3157346],[8.7771263,47.3184935],[8.7777119,47.3207958],[8.7778778,47.3215831],[8.7779364,47.3225688],[8.7788635,47.3258698],[8.7789708,47.3264651],[8.7789508,47.3270427]]}},{"type":"Feature","properties":{"carriage_ref":"B","first":"true","highway":"motorway","oneway":"yes","proposed":"motorway","ref":"A53"},"geometry":{"type":"LineString","coordinates":[[8.7433934,47.3471671],[8.7436146,47.3466861]]}},{"type":"Feature","properties":{"highway":"motorway","layer":"-1","oneway":"yes","proposed":"motorway","ref":"A53","tunnel":"yes","carriage_ref":"A"},"geometry":{"type":"LineString","coordinates":[[8.7711347,47.3325209],[8.7555258,47.3390493],[8.7551059,47.339246],[8.7546632,47.3394816]]}}],"ref":"A53","generator":"Quandopasso Path Importer","created":"2021-01-04T14:54:41.763Z","format":"1.0.0"}