{"type":"FeatureCollection","features":[{"type":"Feature","properties":{"destination":"Karlsruhe;Mulhouse;Basel|Luzern;Bern;Zürich;Birsfelden","highway":"motorway","lanes":"2","maxspeed":"60","oneway":"yes","ref":"A18","surface":"asphalt","toll":"no","turn:lanes":"left|slight_right","carriage_ref":"c","opposite_carriage_ref":"d"},"geometry":{"type":"LineString","coordinates":[[7.6261694,47.5406203],[7.6263567,47.5408151],[7.6266147,47.5410171],[7.6266642,47.5410433],[7.6267253,47.5410727],[7.6267906,47.5410963],[7.6269102,47.5411343],[7.6270881,47.5411812]]}},{"type":"Feature","properties":{"highway":"motorway","lanes":"2","maxspeed":"100","oneway":"yes","ref":"A18","toll":"no","carriage_ref":"d","opposite_carriage_ref":"c"},"geometry":{"type":"LineString","coordinates":[[7.6231399,47.532664],[7.6229212,47.5319815],[7.622774,47.5313861],[7.6226732,47.5308556],[7.6226172,47.5302667],[7.6226113,47.5296369],[7.6227405,47.5282893],[7.6228272,47.5274008],[7.6228688,47.5268811],[7.6228693,47.5264059]]}},{"type":"Feature","properties":{"bridge":"yes","destination":"Karlsruhe;Mulhouse;Basel|Luzern;Bern;Zürich;Birsfelden","highway":"motorway","lanes":"2","layer":"1","maxspeed":"60","oneway":"yes","ref":"A18","surface":"asphalt","toll":"no","carriage_ref":"c","opposite_carriage_ref":"d"},"geometry":{"type":"LineString","coordinates":[[7.6259883,47.5403739],[7.6261694,47.5406203]]}},{"type":"Feature","properties":{"highway":"motorway","lanes":"2","maxspeed":"100","oneway":"yes","ref":"A18","toll":"no","carriage_ref":"d","opposite_carriage_ref":"c"},"geometry":{"type":"LineString","coordinates":[[7.6228693,47.5264059],[7.6228641,47.5260976]]}},{"type":"Feature","properties":{"bicycle":"no","highway":"trunk","maxspeed":"60","ref":"A18","carriage_ref":"b","opposite_carriage_ref":"a"},"geometry":{"type":"LineString","coordinates":[[7.5631008,47.4415163],[7.5623574,47.4417014],[7.5617101,47.4418878],[7.5614388,47.4419783]]}},{"type":"Feature","properties":{"highway":"motorway","lanes":"1","maxspeed":"60","oneway":"yes","ref":"A18","surface":"asphalt","carriage_ref":"d","opposite_carriage_ref":"c"},"geometry":{"type":"LineString","coordinates":[[7.6268082,47.5419988],[7.626799,47.5420871],[7.6267733,47.5421839],[7.6267314,47.5422531],[7.6266677,47.5423186],[7.6265867,47.5423783],[7.626481,47.5424259],[7.6263669,47.542463],[7.6262343,47.5424837],[7.626094,47.5424879],[7.6259583,47.5424726],[7.625827,47.5424383],[7.6257024,47.5423852],[7.6253816,47.5421809],[7.6253375,47.5421663]]}},{"type":"Feature","properties":{"highway":"motorway","lanes":"2","maxspeed":"80","oneway":"yes","ref":"A18","toll":"no","carriage_ref":"d","opposite_carriage_ref":"c"},"geometry":{"type":"LineString","coordinates":[[7.6240969,47.5361344],[7.6240202,47.5354264],[7.6239553,47.5351145],[7.6237642,47.5344071]]}},{"type":"Feature","properties":{"highway":"trunk","lanes":"2","maxspeed":"100","oneway":"yes","ref":"A18","toll":"no","carriage_ref":"d","opposite_carriage_ref":"c"},"geometry":{"type":"LineString","coordinates":[[7.6020449,47.4866821],[7.6021019,47.4854238]]}},{"type":"Feature","properties":{"highway":"motorway","lanes":"2","maxspeed":"100","oneway":"yes","ref":"A18","toll":"no","carriage_ref":"d","opposite_carriage_ref":"c"},"geometry":{"type":"LineString","coordinates":[[7.6228175,47.5254235],[7.6228039,47.5252705],[7.6226759,47.5245822],[7.6225428,47.5240219]]}},{"type":"Feature","properties":{"highway":"motorway","lanes":"3","oneway":"yes","ref":"A18","toll":"no","turn:lanes":"none|none|merge_to_left","carriage_ref":"d","opposite_carriage_ref":"c"},"geometry":{"type":"LineString","coordinates":[[7.6228641,47.5260976],[7.6228328,47.525573],[7.6228175,47.5254235]]}},{"type":"Feature","properties":{"highway":"motorway","lanes":"2","maxspeed":"100","oneway":"yes","ref":"A18","toll":"no","carriage_ref":"c","opposite_carriage_ref":"d"},"geometry":{"type":"LineString","coordinates":[[7.6225952,47.5237808],[7.6227929,47.524524],[7.6229213,47.5252542],[7.622989,47.5259895],[7.623017,47.5263832],[7.6229621,47.5272328],[7.6228727,47.5282956],[7.6227717,47.529299],[7.6227398,47.5297255]]}},{"type":"Feature","properties":{"avz":"244","cs_dir:forward":"1","highway":"motorway","lanes":"2","layer":"-5","maxspeed":"80","oneway":"yes","ref":"A18","ssvz":"857","toll":"no","tunnel":"yes","tunnel:name":"Reinach","carriage_ref":"d","opposite_carriage_ref":"c"},"geometry":{"type":"LineString","coordinates":[[7.6024129,47.497794],[7.6019685,47.4969629],[7.6016459,47.4956331],[7.6014104,47.494636],[7.6014214,47.4933926],[7.6015111,47.4924578]]}},{"type":"Feature","properties":{"highway":"trunk","maxspeed":"100","oneway":"yes","ref":"A18","toll":"no","first":"true","carriage_ref":"c","opposite_carriage_ref":"d"},"geometry":{"type":"LineString","coordinates":[[7.6034836,47.4799637],[7.6031031,47.480813],[7.6030682,47.480891]]}},{"type":"Feature","properties":{"highway":"motorway","lanes":"1","maxspeed":"80","oneway":"yes","ref":"A18","surface":"asphalt","carriage_ref":"c","opposite_carriage_ref":"d"},"geometry":{"type":"LineString","coordinates":[[7.6303329,47.5415281],[7.6303168,47.5416398],[7.6302806,47.5417255],[7.630223,47.5418137],[7.6301512,47.5418843],[7.6300573,47.5419469],[7.6299444,47.5420064],[7.6298338,47.5420404],[7.629707,47.5420666],[7.6295597,47.5420795],[7.6294211,47.542086],[7.6292768,47.5420787],[7.6291533,47.5420716]]}},{"type":"Feature","properties":{"highway":"trunk","lanes":"1","maxspeed":"100","oneway":"yes","ref":"A18","toll":"no","carriage_ref":"d","opposite_carriage_ref":"c"},"geometry":{"type":"LineString","coordinates":[[7.6021019,47.4854238],[7.6021883,47.483519],[7.6022443,47.4829348],[7.6022934,47.482671],[7.6025692,47.4817991],[7.6028368,47.4811778]]}},{"type":"Feature","properties":{"destination":"Delemont;Muttenz-Süd","highway":"motorway","lanes":"2","layer":"-1","maxspeed":"80","name":"Schänzlitunnel","oneway":"yes","ref":"A18","toll":"no","tunnel":"yes","tunnel:alt_name":"Schaenzli","tunnel:name":"Schänzli","carriage_ref":"d","opposite_carriage_ref":"c"},"geometry":{"type":"LineString","coordinates":[[7.624515,47.5410628],[7.6242092,47.5406133],[7.6239565,47.5401098],[7.6239075,47.5399724],[7.6238902,47.5398511],[7.6239071,47.5397677],[7.6239667,47.53967]]}},{"type":"Feature","properties":{"bicycle":"no","highway":"trunk","lanes":"3","lanes:backward":"2","lanes:forward":"1","maxspeed":"60","ref":"A18","turn:lanes:backward":"left|through","first":"true","carriage_ref":"a","opposite_carriage_ref":"b"},"geometry":{"type":"LineString","coordinates":[[7.56085427629,47.44214770679],[7.56141858978,47.44194601921]]}},{"type":"Feature","properties":{"alt_name":"Schaenzlitunnel","avz":"6","cs_dir:forward":"1","highway":"motorway","lanes":"2","layer":"-1","maxspeed":"80","name":"Schänzlitunnel","oneway":"yes","ref":"A18","toll":"no","tunnel":"yes","tunnel:alt_name":"Schaenzli","tunnel:name":"Schänzli","carriage_ref":"d","opposite_carriage_ref":"c"},"geometry":{"type":"LineString","coordinates":[[7.6239667,47.53967],[7.6243704,47.5389305],[7.6244802,47.5386346],[7.6244727,47.5383201],[7.6243482,47.5377897],[7.6242247,47.5371569],[7.6240969,47.5361344]]}},{"type":"Feature","properties":{"highway":"trunk","lanes":"3","maxspeed":"80","oneway":"yes","ref":"A18","toll":"no","turn:lanes":"through|through|slight_right","carriage_ref":"c","opposite_carriage_ref":"d"},"geometry":{"type":"LineString","coordinates":[[7.6022263,47.4856584],[7.6021768,47.486756]]}},{"type":"Feature","properties":{"highway":"trunk","lanes":"2","maxspeed":"80","oneway":"yes","ref":"A18","toll":"no","carriage_ref":"c","opposite_carriage_ref":"d"},"geometry":{"type":"LineString","coordinates":[[7.6022579,47.4850154],[7.6022484,47.4851676],[7.6022263,47.4856584]]}},{"type":"Feature","properties":{"avz":"244","cs_dir:forward":"2","highway":"motorway","lanes":"2","layer":"-5","maxspeed":"80","oneway":"yes","ref":"A18","ssvz":"857","toll":"no","tunnel":"yes","tunnel:name":"Reinach","carriage_ref":"c","opposite_carriage_ref":"d"},"geometry":{"type":"LineString","coordinates":[[7.6015269,47.4933752],[7.6015188,47.494625],[7.6017602,47.4956244],[7.6020966,47.4969025],[7.6024032,47.4975141]]}},{"type":"Feature","properties":{"bridge":"yes","highway":"motorway","lanes":"2","layer":"1","maxspeed":"100","oneway":"yes","ref":"A18","toll":"no","carriage_ref":"c","opposite_carriage_ref":"d"},"geometry":{"type":"LineString","coordinates":[[7.6213716,47.5212986],[7.6216693,47.5217405],[7.6218342,47.5220594],[7.6220286,47.5224111],[7.6221984,47.5227286],[7.6223514,47.5230903],[7.6225558,47.5236512],[7.6225952,47.5237808]]}},{"type":"Feature","properties":{"destination":"Delemont;Muttenz|Basel-St.Jakob;Birsfelden","destination:lanes":"Delemont;Muttenz | Basel-St.Jakob;Birsfelden","destination:ref":"A 18","destination:symbol":"harbour","highway":"motorway","lanes":"2","maxspeed":"80","oneway":"yes","ref":"A18","surface":"asphalt","turn:lanes":"slight_left|through","carriage_ref":"d","opposite_carriage_ref":"c"},"geometry":{"type":"LineString","coordinates":[[7.6253805,47.5416778],[7.625936,47.5415546]]}},{"type":"Feature","properties":{"bicycle":"no","highway":"trunk","lanes":"3","lanes:backward":"1","lanes:forward":"2","maxspeed":"60","ref":"A18","turn:lanes:forward":"left|through","carriage_ref":"b","last":"true","opposite_carriage_ref":"a"},"geometry":{"type":"LineString","coordinates":[[7.5614388,47.4419783],[7.5608423,47.4421945]]}},{"type":"Feature","properties":{"highway":"motorway","lanes":"2","maxspeed":"80","oneway":"yes","ref":"A18","toll":"no","carriage_ref":"c","opposite_carriage_ref":"d"},"geometry":{"type":"LineString","coordinates":[[7.6238018,47.5341902],[7.623922,47.534545],[7.6240782,47.535093],[7.6241451,47.5354294],[7.6241772,47.5357277]]}},{"type":"Feature","properties":{"highway":"motorway","lanes":"3","maxspeed":"80","oneway":"yes","ref":"A18","toll":"no","turn:lanes":"none|none;slight_right|right","carriage_ref":"d","opposite_carriage_ref":"c"},"geometry":{"type":"LineString","coordinates":[[7.6237642,47.5344071],[7.6237277,47.5343029],[7.623673,47.5341702]]}},{"type":"Feature","properties":{"highway":"motorway","lanes":"3","oneway":"yes","ref":"A18","toll":"no","turn:lanes":"none|none|slight_right","carriage_ref":"d","opposite_carriage_ref":"c"},"geometry":{"type":"LineString","coordinates":[[7.6234492,47.5335755],[7.6231399,47.532664]]}},{"type":"Feature","properties":{"highway":"motorway","lanes":"2","maxspeed":"100","oneway":"yes","ref":"A18","toll":"no","carriage_ref":"c","opposite_carriage_ref":"d"},"geometry":{"type":"LineString","coordinates":[[7.6161224,47.5160953],[7.6166376,47.5166929],[7.6176424,47.5176674],[7.6179566,47.5179392],[7.6192167,47.5189753],[7.6196591,47.5193567],[7.6201136,47.5197995],[7.6204694,47.5201608],[7.6210669,47.5208736],[7.6213716,47.5212986]]}},{"type":"Feature","properties":{"bicycle":"no","foot":"no","highway":"trunk","horse":"no","lanes":"2","layer":"-1","maxspeed":"80","ref":"A18","start_date":"1999","surface":"asphalt","tunnel":"yes","tunnel:name":"Eggfluetunnel","carriage_ref":"a","opposite_carriage_ref":"b"},"geometry":{"type":"LineString","coordinates":[[7.56307522536,47.44148039074],[7.56425247629,47.44127120601],[7.56552697629,47.44117080592],[7.56663257629,47.44113340589],[7.56743897629,47.44121540596],[7.56852217629,47.44143380615],[7.56968887629,47.44173400642],[7.59183487629,47.44753521158],[7.59289117629,47.44791081191],[7.59386187629,47.44835561231],[7.59469997629,47.44888941278],[7.59532607629,47.44941241325],[7.59575147629,47.44985801365],[7.59608647629,47.45033691407],[7.59630977629,47.45074671444]]}},{"type":"Feature","properties":{"bicycle":"no","foot":"no","highway":"trunk","horse":"no","lanes":"2","layer":"-1","maxspeed":"80","ref":"A18","start_date":"1999","surface":"asphalt","tunnel":"yes","tunnel:name":"Eggfluetunnel","carriage_ref":"b","opposite_carriage_ref":"a"},"geometry":{"type":"LineString","coordinates":[[7.5962978,47.4507935],[7.5960745,47.4503837],[7.5957395,47.4499048],[7.5953141,47.4494592],[7.594688,47.4489362],[7.5938499,47.4484024],[7.5928792,47.4479576],[7.5918229,47.447582],[7.5696769,47.4417808],[7.5685102,47.4414806],[7.567427,47.4412622],[7.5666206,47.4411802],[7.565515,47.4412176],[7.5642405,47.441318],[7.5631008,47.4415163]]}},{"type":"Feature","properties":{"destination":"Karlsruhe;Mulhouse;Basel;Basel-St. Jakob|Birsfelden","highway":"motorway","lanes":"2","layer":"-1","maxspeed":"60","oneway":"yes","ref":"A18","tunnel":"yes","carriage_ref":"c","opposite_carriage_ref":"d"},"geometry":{"type":"LineString","coordinates":[[7.6300341,47.5411218],[7.6301746,47.541213]]}},{"type":"Feature","properties":{"highway":"motorway","lanes":"1","maxspeed":"80","oneway":"yes","ref":"A18","toll":"no","carriage_ref":"d","opposite_carriage_ref":"c"},"geometry":{"type":"LineString","coordinates":[[7.6019427,47.4882329],[7.6020377,47.4870273],[7.6020449,47.4866821]]}},{"type":"Feature","properties":{"highway":"trunk","ref":"A18","first":"true","carriage_ref":"b","opposite_carriage_ref":"a"},"geometry":{"type":"LineString","coordinates":[[7.5972624,47.4522429],[7.5970317,47.4519717],[7.5967886,47.4516329],[7.5966106,47.4513533],[7.5962978,47.4507935]]}},{"type":"Feature","properties":{"bridge":"yes","highway":"motorway","lanes":"1","layer":"1","maxspeed":"80","oneway":"yes","ref":"A18","surface":"asphalt","carriage_ref":"c","opposite_carriage_ref":"d"},"geometry":{"type":"LineString","coordinates":[[7.6291533,47.5420716],[7.628413,47.5419771],[7.628091,47.5419385],[7.6279412,47.5419438]]}},{"type":"Feature","properties":{"destination":"Karlsruhe;Mulhouse;Basel;Basel-St. Jakob","highway":"motorway","lanes":"1","layer":"-1","maxspeed":"60","oneway":"yes","ref":"A18","tunnel":"yes","carriage_ref":"c","opposite_carriage_ref":"d"},"geometry":{"type":"LineString","coordinates":[[7.6301746,47.541213],[7.6302591,47.5413167],[7.630315,47.5414331],[7.6303329,47.5415281]]}},{"type":"Feature","properties":{"highway":"trunk","ref":"A18","last":"true","carriage_ref":"a","opposite_carriage_ref":"b"},"geometry":{"type":"LineString","coordinates":[[7.59630977629,47.45074671444],[7.59662257629,47.45130651493],[7.59680057629,47.45158611518],[7.59704367629,47.45192491548],[7.59727437629,47.45219611573]]}},{"type":"Feature","properties":{"destination":"Delemont;Basel-St.Jakob;Birsfelden;Muttenz;Dreispitz","destination:colour":"none;blue;blue;blue;white","destination:lanes":"Basel-St.Jakob;Birsfelden;Muttenz|Delemont","destination:ref":"A18","destination:symbol":"none;none;harbour;none;none","highway":"motorway","lanes":"2","maxspeed":"80","oneway":"yes","ref":"A18","surface":"asphalt","turn:lanes":"slight_left;through|through","first":"true","carriage_ref":"d","opposite_carriage_ref":"c"},"geometry":{"type":"LineString","coordinates":[[7.6234846,47.5421694],[7.6246455,47.5418468],[7.6247765,47.5418151]]}},{"type":"Feature","properties":{"destination":"Delemont;Muttenz-Nord|Delemont;Muttenz-Süd","highway":"motorway","lanes":"2","maxspeed":"60","oneway":"yes","ref":"A18","surface":"asphalt","carriage_ref":"d","opposite_carriage_ref":"c"},"geometry":{"type":"LineString","coordinates":[[7.6253375,47.5421663],[7.6251216,47.5418942],[7.6248913,47.5415499]]}},{"type":"Feature","properties":{"bicycle":"no","highway":"trunk","maxspeed":"60","ref":"A18","carriage_ref":"a","opposite_carriage_ref":"b"},"geometry":{"type":"LineString","coordinates":[[7.56141858978,47.44194601921],[7.56174353396,47.44184100651],[7.56219771491,47.44170540076],[7.56307522536,47.44148039074]]}},{"type":"Feature","properties":{"highway":"motorway","lanes":"1","maxspeed":"80","oneway":"yes","ref":"A18","toll":"no","carriage_ref":"c","opposite_carriage_ref":"d"},"geometry":{"type":"LineString","coordinates":[[7.601877,47.4903222],[7.6017913,47.4913314]]}},{"type":"Feature","properties":{"highway":"motorway","lanes":"2","maxspeed":"80","oneway":"yes","ref":"A18","toll":"no","turn:lanes":"through|merge_to_left","carriage_ref":"c","opposite_carriage_ref":"d"},"geometry":{"type":"LineString","coordinates":[[7.6020179,47.4889432],[7.6019655,47.4895958],[7.601877,47.4903222]]}},{"type":"Feature","properties":{"highway":"trunk","lanes":"2","oneway":"yes","ref":"A18","toll":"no","carriage_ref":"c","opposite_carriage_ref":"d"},"geometry":{"type":"LineString","coordinates":[[7.6022994,47.4838065],[7.6022817,47.4841348],[7.6022579,47.4850154]]}},{"type":"Feature","properties":{"highway":"motorway","lanes":"2","maxspeed":"80","oneway":"yes","ref":"A18","toll":"no","carriage_ref":"d","opposite_carriage_ref":"c"},"geometry":{"type":"LineString","coordinates":[[7.6042985,47.5008873],[7.6040454,47.5003486],[7.6037963,47.499907],[7.603342,47.4991883],[7.6024129,47.497794]]}},{"type":"Feature","properties":{"highway":"motorway","lanes":"2","maxspeed":"120","oneway":"yes","ref":"A18","toll":"no","carriage_ref":"c","opposite_carriage_ref":"d"},"geometry":{"type":"LineString","coordinates":[[7.6024032,47.4975141],[7.6025821,47.497808],[7.6034382,47.4991203],[7.6041472,47.5002887],[7.604311,47.5005935],[7.6044472,47.5009106],[7.6047106,47.5016599],[7.6049654,47.5025367],[7.6051383,47.5030667],[7.6053833,47.5036523],[7.605588,47.5040443],[7.6056922,47.5042233],[7.606085,47.5048484],[7.6063508,47.5051966],[7.6067594,47.5056723],[7.6072948,47.5061941],[7.6094091,47.5079742],[7.6098645,47.5083725],[7.6102711,47.508757],[7.6109881,47.5094962],[7.6115735,47.5101281],[7.6116018,47.510161],[7.6120773,47.5107582],[7.6143324,47.5137128],[7.6149239,47.5145199],[7.6158925,47.5157999],[7.6161224,47.5160953]]}},{"type":"Feature","properties":{"bridge":"yes","destination":"Delemont;Muttenz|Basel-St.Jakob;Birsfelden","destination:lanes":"Delemont;Muttenz | Basel-St.Jakob;Birsfelden","destination:ref":"A 18","destination:symbol":"harbour","highway":"motorway","lanes":"2","layer":"1","maxspeed":"80","oneway":"yes","ref":"A18","surface":"asphalt","turn:lanes":"slight_left|through","carriage_ref":"d","opposite_carriage_ref":"c"},"geometry":{"type":"LineString","coordinates":[[7.6247765,47.5418151],[7.6253805,47.5416778]]}},{"type":"Feature","properties":{"alt_name":"Schaenzlitunnel","avz":"6","cs_dir:forward":"2","highway":"motorway","lanes":"2","layer":"-1","maxspeed":"60","name":"Schänzlitunnel","oneway":"yes","ref":"A18","toll":"no","tunnel":"yes","tunnel:alt_name":"Schaenzli","tunnel:name":"Schänzli","carriage_ref":"c","opposite_carriage_ref":"d"},"geometry":{"type":"LineString","coordinates":[[7.6241772,47.5357277],[7.6243229,47.5369391],[7.6243669,47.5373379],[7.6244037,47.5374543],[7.6244364,47.5375281],[7.6253212,47.5391037]]}},{"type":"Feature","properties":{"highway":"motorway","lanes":"3","maxspeed":"80","oneway":"yes","ref":"A18","toll":"no","turn:lanes":"through|through|slight_right","carriage_ref":"d","opposite_carriage_ref":"c"},"geometry":{"type":"LineString","coordinates":[[7.6015111,47.4924578],[7.6015494,47.492207]]}},{"type":"Feature","properties":{"highway":"trunk","maxspeed":"100","oneway":"yes","ref":"A18","toll":"no","carriage_ref":"c","opposite_carriage_ref":"d"},"geometry":{"type":"LineString","coordinates":[[7.6028989,47.4812202],[7.6028268,47.4814247],[7.6026742,47.4818578],[7.6024947,47.4824174],[7.6023895,47.4829644],[7.6022994,47.4838065]]}},{"type":"Feature","properties":{"bridge":"yes","highway":"trunk","layer":"1","oneway":"yes","ref":"A18","toll":"no","carriage_ref":"d","opposite_carriage_ref":"c"},"geometry":{"type":"LineString","coordinates":[[7.6028368,47.4811778],[7.6030081,47.480867]]}},{"type":"Feature","properties":{"highway":"motorway","lanes":"2","maxspeed":"100","oneway":"yes","ref":"A18","toll":"no","carriage_ref":"d","opposite_carriage_ref":"c"},"geometry":{"type":"LineString","coordinates":[[7.6212536,47.5213494],[7.6210975,47.5211253],[7.6209204,47.5208972],[7.6203593,47.5202091],[7.6198076,47.5196624],[7.6194609,47.5193377],[7.6190758,47.5190199],[7.6180302,47.5181607],[7.6175172,47.517702],[7.616875,47.517094],[7.6164684,47.5166744]]}},{"type":"Feature","properties":{"highway":"motorway","lanes":"3","maxspeed":"80","oneway":"yes","ref":"A18","toll":"no","turn:lanes":"none|none|slight_right","carriage_ref":"c","opposite_carriage_ref":"d"},"geometry":{"type":"LineString","coordinates":[[7.6229644,47.5316237],[7.622984,47.531706],[7.6230382,47.5319129],[7.6232072,47.5324496],[7.6235042,47.5332816]]}},{"type":"Feature","properties":{"highway":"motorway","lanes":"3","maxspeed":"100","oneway":"yes","ref":"A18","toll":"no","turn:lanes":"none|none;slight_right|right","carriage_ref":"d","opposite_carriage_ref":"c"},"geometry":{"type":"LineString","coordinates":[[7.623673,47.5341702],[7.6235204,47.5337699],[7.6234492,47.5335755]]}},{"type":"Feature","properties":{"highway":"motorway","lanes":"2","maxspeed":"80","oneway":"yes","ref":"A18","toll":"no","carriage_ref":"c","opposite_carriage_ref":"d"},"geometry":{"type":"LineString","coordinates":[[7.6021768,47.486756],[7.6021364,47.4872182],[7.6021125,47.4876368],[7.6020491,47.4885549],[7.6020179,47.4889432]]}},{"type":"Feature","properties":{"highway":"motorway","lanes":"2","maxspeed":"80","oneway":"yes","ref":"A18","toll":"no","turn:lanes":"merge_to_right|through","carriage_ref":"d","opposite_carriage_ref":"c"},"geometry":{"type":"LineString","coordinates":[[7.6018431,47.4895343],[7.6019427,47.4882329]]}},{"type":"Feature","properties":{"highway":"trunk","maxspeed":"100","oneway":"yes","ref":"A18","toll":"no","last":"true","carriage_ref":"d","opposite_carriage_ref":"c"},"geometry":{"type":"LineString","coordinates":[[7.6030081,47.480867],[7.6034836,47.4799637]]}},{"type":"Feature","properties":{"destination":"Delemont;Muttenz","highway":"motorway","lanes":"1","maxspeed":"60","oneway":"yes","ref":"A18","surface":"asphalt","carriage_ref":"d","opposite_carriage_ref":"c"},"geometry":{"type":"LineString","coordinates":[[7.625936,47.5415546],[7.6261893,47.5415577],[7.6263491,47.5415736],[7.6264895,47.5416252]]}},{"type":"Feature","properties":{"destination":"Karlsruhe;Mulhouse;Basel;Basel-St. Jakob|Birsfelden","highway":"motorway","lanes":"2","maxspeed":"60","oneway":"yes","ref":"A18","carriage_ref":"c","opposite_carriage_ref":"d"},"geometry":{"type":"LineString","coordinates":[[7.6291106,47.5410361],[7.6293853,47.5410076],[7.6296079,47.5410103],[7.6297749,47.5410265],[7.6299227,47.5410655],[7.6300341,47.5411218]]}},{"type":"Feature","properties":{"highway":"motorway","lanes":"2","maxspeed":"80","oneway":"yes","ref":"A18","toll":"no","carriage_ref":"d","opposite_carriage_ref":"c"},"geometry":{"type":"LineString","coordinates":[[7.6015494,47.492207],[7.6016371,47.4915411],[7.6017678,47.4903065],[7.6018431,47.4895343]]}},{"type":"Feature","properties":{"destination":"Karlsruhe;Mulhouse;Basel;Basel-St. Jakob|Birsfelden|Luzern;Bern;Zürich","highway":"motorway","lanes":"3","maxspeed":"60","oneway":"yes","ref":"A18","surface":"asphalt","toll":"no","turn:lanes":"left|left|slight_right","carriage_ref":"c","opposite_carriage_ref":"d"},"geometry":{"type":"LineString","coordinates":[[7.6270881,47.5411812],[7.6272649,47.5412049],[7.6274634,47.5412189],[7.6277217,47.5412195],[7.6280228,47.5411878],[7.6284446,47.5411298],[7.6291106,47.5410361]]}},{"type":"Feature","properties":{"bridge":"yes","destination":"Karlsruhe;Mulhouse;Basel|Luzern;Bern;Zürich;Birsfelden","highway":"motorway","lanes":"2","layer":"1","maxspeed":"60","oneway":"yes","ref":"A18","surface":"asphalt","toll":"no","carriage_ref":"c","opposite_carriage_ref":"d"},"geometry":{"type":"LineString","coordinates":[[7.6253212,47.5391037],[7.6255317,47.5395118],[7.6255557,47.539562],[7.6257679,47.5399896],[7.625925,47.5402701],[7.6259883,47.5403739]]}},{"type":"Feature","properties":{"highway":"motorway","lanes":"2","maxspeed":"80","oneway":"yes","ref":"A18","toll":"no","carriage_ref":"c","opposite_carriage_ref":"d"},"geometry":{"type":"LineString","coordinates":[[7.6235042,47.5332816],[7.6238018,47.5341902]]}},{"type":"Feature","properties":{"highway":"motorway","lanes":"2","maxspeed":"80","oneway":"yes","ref":"A18","toll":"no","carriage_ref":"c","opposite_carriage_ref":"d"},"geometry":{"type":"LineString","coordinates":[[7.6227398,47.5297255],[7.6227537,47.5306664],[7.6228313,47.5311379],[7.6228853,47.5313893],[7.6229644,47.5316237]]}},{"type":"Feature","properties":{"bridge":"yes","highway":"motorway","lanes":"2","layer":"1","maxspeed":"100","oneway":"yes","ref":"A18","toll":"no","carriage_ref":"d","opposite_carriage_ref":"c"},"geometry":{"type":"LineString","coordinates":[[7.6225428,47.5240219],[7.6224563,47.523719],[7.6222351,47.5231187],[7.6220335,47.5226878],[7.6218727,47.5223929],[7.6217471,47.5221583],[7.6215309,47.5217524],[7.6212536,47.5213494]]}},{"type":"Feature","properties":{"highway":"motorway","lanes":"2","maxspeed":"120","oneway":"yes","ref":"A18","toll":"no","carriage_ref":"d","opposite_carriage_ref":"c"},"geometry":{"type":"LineString","coordinates":[[7.6164684,47.5166744],[7.6154598,47.5154276],[7.6147757,47.5145238],[7.6137063,47.5131126],[7.612023,47.5108966],[7.6119846,47.5108478],[7.6116773,47.5104495],[7.6114144,47.5101239],[7.6110964,47.5097629],[7.6107736,47.5094224],[7.6101673,47.5088155],[7.6093654,47.5080826],[7.6087168,47.5075349],[7.6080517,47.5070071],[7.6073079,47.5063611],[7.6067749,47.5058654],[7.606447,47.5055147],[7.6058661,47.5047267],[7.6054277,47.504054],[7.6052465,47.5036631],[7.6050203,47.5031378],[7.6047746,47.5023271],[7.6045461,47.5015462],[7.6042985,47.5008873]]}},{"type":"Feature","properties":{"destination":"Delemont;Muttenz-Nord|Delemont;Muttenz-Süd","highway":"motorway","lanes":"2","layer":"-1","maxspeed":"60","name":"Schaenzlitunnel","oneway":"yes","ref":"A18","surface":"asphalt","tunnel":"yes","tunnel:alt_name":"Schaenzli","tunnel:name":"Schänzli","carriage_ref":"d","opposite_carriage_ref":"c"},"geometry":{"type":"LineString","coordinates":[[7.6248913,47.5415499],[7.624515,47.5410628]]}},{"type":"Feature","properties":{"bridge":"yes","highway":"trunk","layer":"1","oneway":"yes","ref":"A18","toll":"no","carriage_ref":"c","opposite_carriage_ref":"d"},"geometry":{"type":"LineString","coordinates":[[7.6030682,47.480891],[7.6028989,47.4812202]]}},{"type":"Feature","properties":{"highway":"motorway","lanes":"2","maxspeed":"80","oneway":"yes","ref":"A18","toll":"no","carriage_ref":"c","opposite_carriage_ref":"d"},"geometry":{"type":"LineString","coordinates":[[7.6017913,47.4913314],[7.6016338,47.4926809],[7.6015269,47.4933752]]}},{"type":"Feature","properties":{"destination":"Karlsruhe;Mulhouse;Basel|Basel-St.Jakob;Delemont","highway":"motorway","lanes":"2","maxspeed":"80","oneway":"yes","ref":"A18","surface":"asphalt","last":"true","carriage_ref":"c","opposite_carriage_ref":"d"},"geometry":{"type":"LineString","coordinates":[[7.6279412,47.5419438],[7.6275572,47.5419207],[7.6271879,47.5419183],[7.6268588,47.5419286]]}},{"type":"Feature","properties":{"highway":"motorway","lanes":"1","layer":"-1","maxspeed":"60","oneway":"yes","ref":"A18","surface":"asphalt","tunnel":"yes","carriage_ref":"d","opposite_carriage_ref":"c"},"geometry":{"type":"LineString","coordinates":[[7.6264895,47.5416252],[7.6265887,47.5416847],[7.6267093,47.5417824],[7.6267699,47.5418802],[7.6268082,47.5419988]]}}],"ref":"A18","generator":"Quandopasso Path Importer","created":"2021-01-04T14:48:23.579Z","format":"1.0.0"}